the_geom,School_ID,Short_Name,Address,Grade_Cat,Lat,Long
POINT (-87.74009743580557 41.807578507688),400009,GLOBAL CITIZENSHIP,4647 W 47TH ST,ES,41.80757851,-87.74009744
POINT (-87.70523452592847 41.877248353011105),400011,LOCKE A,3141 W JACKSON BLVD,ES,41.87724835,-87.70523453
POINT (-87.72709565848757 41.93729828527696),400013,ASPIRA - EARLY COLLEGE HS,3986 W BARRY AVE,HS,41.93729829,-87.72709566
POINT (-87.72239341160187 41.96639814328423),400017,ASPIRA - HAUGAN,3729 W LELAND AVE,ES,41.96640601,-87.7223992
POINT (-87.76532197832115 41.88232222170121),400021,CATALYST - CIRCLE ROCK,5608 W WASHINGTON BLVD,ES,41.88232222,-87.76532198
POINT (-87.69494501175208 41.899376573214596),400022,CHIARTS HS,2714 W AUGUSTA BLVD,HS,41.89937657,-87.69494501
POINT (-87.58792764148505 41.74317942056082),400023,CICS - AVALON/SOUTH SHORE,1501 E 83RD PL,ES,41.74317942,-87.58792764
POINT (-87.67024265730416 41.79404286449799),400024,CICS - BASIL,1816 W GARFIELD BLVD,ES,41.79404286,-87.67024266
POINT (-87.68135796493897 41.92241462993949),400025,CICS - BUCKTOWN,2235 N HAMILTON AVE,ES,41.92241463,-87.68135796
POINT (-87.65756105861041 41.72024642375139),400026,CICS - LOOMIS,9535 S LOOMIS ST,ES,41.72024642,-87.65756106
POINT (-87.71049242849384 41.950891275505334),400027,CICS - IRVING PARK,3820 N SPAULDING AVE,ES,41.95089128,-87.71049243
POINT (-87.616888381727 41.68443303871135),400028,CICS - PRAIRIE,11530 S PRAIRIE AVE,ES,41.68443304,-87.61688838
POINT (-87.6212607530029 41.78412639760318),400029,CICS - WASHINGTON PARK,110 E 61ST ST,ES,41.7841264,-87.62126075
POINT (-87.77674853945702 41.92168749543773),400030,CICS - WEST BELDEN,2245 N MCVICKER AVE,ES,41.9216875,-87.77674854
POINT (-87.69261439880505 41.745365450693456),400031,CICS - WRIGHTWOOD,8130 S CALIFORNIA AVE,ES,41.74536545,-87.6926144
POINT (-87.66897963899916 41.748382408369885),400032,CICS - ELLISON HS,1817 W 80TH ST,HS,41.74838241,-87.66897964
POINT (-87.6557681329176 41.721221432987626),400033,CICS - LONGWOOD,1309 W 95TH ST,HS,41.72122143,-87.65576813
POINT (-87.7265042643365 41.99024501216414),400034,CICS - NORTHTOWN HS,3900 W PETERSON AVE,HS,41.99024501,-87.72650426
POINT (-87.67481841837017 42.01303148982308),400035,CHICAGO MATH & SCIENCE HS,7212 N CLARK ST,HS,42.01303149,-87.67481842
POINT (-87.69436444521669 41.9067706355916),400039,ERIE,1405 N WASHTENAW AVE,ES,41.90677064,-87.69436445
POINT (-87.72107064650437 41.858369744008876),400044,KIPP - ASCEND,1616 S AVERS AVE,ES,41.85836974,-87.72107065
POINT (-87.71067948006804 41.86727271466351),400046,LEARN - BUTLER,1132 S HOMAN AVE,ES,41.86727271,-87.71067948
POINT (-87.69873871979605 41.87786063190724),400047,LEARN - CAMPBELL,212 S FRANCISCO AVE,ES,41.87786063,-87.69873872
POINT (-87.70207089041898 41.88731991570442),400048,LEARN - EXCEL,3021 W CARROLL AVE,ES,41.88731992,-87.70207089
POINT (-87.70850768195612 41.856962452058696),400049,LEGACY,3318 W OGDEN AVE,ES,41.85696245,-87.70850768
POINT (-87.66772404347269 41.8256997600275),400050,NAMASTE,3737 S PAULINA ST,ES,41.82569976,-87.66772404
POINT (-87.66262778223668 41.90019052118369),400051,NOBLE - NOBLE HS,1010 N NOBLE ST,HS,41.90019052,-87.66262778
POINT (-87.60416374544151 41.76525228180878),400052,NOBLE - COMER,7131 SOUTH CHICAGO AVE,HS,41.76525228,-87.60416375
POINT (-87.66448299828372 41.895282194047745),400053,NOBLE - GOLDER HS,1454 W SUPERIOR ST,HS,41.89528219,-87.664483
POINT (-87.73012671472554 41.91521410714899),400054,NOBLE - PRITZKER HS,4131 W CORTLAND AVE,HS,41.91521411,-87.73012671
POINT (-87.66085886980431 41.89242501281333),400055,NOBLE - RAUNER HS,1337 W OHIO ST,HS,41.89242501,-87.66085887
POINT (-87.71804676766158 41.895362259113206),400056,NOBLE - ROWE CLARK HS,3645 W CHICAGO AVE,HS,41.89536226,-87.71804677
POINT (-87.67611092979354 41.86581741364526),400057,NOBLE - UIC HS,1231 S DAMEN AVE,HS,41.86581741,-87.67611093
POINT (-87.70898711116939 41.858563554206846),400058,NLCP - CHRISTIANA HS,1615 S. CHRISTIANA AVE.,HS,41.85856355,-87.70898711
POINT (-87.70068059995427 41.864145843195466),400059,NLCP - COLLINS HS,1313 S SACRAMENTO DR,HS,41.86414584,-87.7006806
POINT (-87.67116041930242 41.983371436354595),400060,AHS - PASSAGES,1643 W BRYN MAWR AVE,ES,41.98337144,-87.67116042
POINT (-87.62650132149447 41.73879091732281),400061,PERSPECTIVES - LEADERSHIP HS,8522 S LAFAYETTE AVE,HS,41.73879092,-87.62650132
POINT (-87.62649482097176 41.7375247311673),400062,PERSPECTIVES - TECH HS,8522 S LAFAYETTE AVE,HS,41.73752473,-87.62649482
POINT (-87.6285309007366 41.85599910522194),400064,PERSPECTIVES - JOSLIN HS,1930 S ARCHER AVE,HS,41.85599911,-87.6285309
POINT (-87.62478771975199 41.82778385747841),400066,PERSPECTIVES - MATH & SCI HS,3663 S WABASH AVE,HS,41.82778386,-87.62478772
POINT (-87.76333693233921 41.872760428574544),400068,PLATO,5545 W HARRISON ST,ES,41.87276043,-87.76333693
POINT (-87.70779647482746 41.8925501739509),400069,POLARIS,620 N SAWYER AVE,ES,41.89255017,-87.70779647
POINT (-87.66399582958877 41.77536736767304),400071,PROVIDENCE ENGLEWOOD,6515 S ASHLAND AVE,ES,41.77536737,-87.66399583
POINT (-87.60850078078475 41.8277260817441),400075,U OF C - DONOGHUE,707 E 37TH ST,ES,41.82772608,-87.60850078
POINT (-87.59878626838403 41.81118286732013),400076,U OF C - NKO,1119 E 46TH ST,ES,41.81118287,-87.59878627
POINT (-87.59737971846869 41.78041190513608),400077,U OF C - WOODLAWN HS,6300 S UNIVERSITY AVE,HS,41.78041191,-87.59737972
POINT (-87.73049511743922 41.81013478732492),400079,ACERO - ZIZUMBO,4248 W 47TH ST,ES,41.81013479,-87.73049512
POINT (-87.73045044341183 41.8081998068592),400080,ACERO - TORRES,4248 W 47TH ST,ES,41.80819981,-87.73045044
POINT (-87.66794916954747 41.859504008313834),400081,ACERO - DE LAS CASAS,1641 W 16TH ST,ES,41.85950401,-87.66794917
POINT (-87.6995936514386 41.93747577593605),400082,ACERO - FUENTES,2845 W BARRY AVE,ES,41.93747578,-87.69959365
POINT (-87.69255089866293 41.850035413107854),400083,ACERO - PAZ,2651 W 23RD ST,ES,41.85003541,-87.6925509
POINT (-87.69386163538265 41.79993018672851),400084,ACERO - TAMAYO,5135 S CALIFORNIA AVE,ES,41.79993019,-87.69386164
POINT (-87.73046684944862 41.80917079003119),400085,ACERO - GARCIA HS,4248 W 47TH ST,HS,41.80917079,-87.73046685
POINT (-87.69739409699156 41.80830882463016),400089,ACERO - MARQUEZ,2916 W 47TH ST,ES,41.80830882,-87.6973941
POINT (-87.65909480291796 41.86330140903649),400091,CHICAGO TECH HS,1301 W 14TH ST,HS,41.86330141,-87.6590948
POINT (-87.60503910190101 41.65366345018884),400092,CICS - BOND,13300 S LANGLEY AVE,ES,41.65366345,-87.6050391
POINT (-87.55022236949598 41.7448491063859),400094,EPIC HS,8255 S HOUSTON AVE,HS,41.74484911,-87.55022237
POINT (-87.66407246852494 41.90779717907945),400096,ROWE,1424 N CLEAVER ST,ES,41.90779718,-87.66407247
POINT (-87.67819525963051 41.878808808762294),400097,NOBLE - BULLS HS,2040 W ADAMS ST,HS,41.87880881,-87.67819526
POINT (-87.62633828219083 41.88274025791717),400098,NOBLE - MUCHIN HS,1 N STATE ST,HS,41.88274026,-87.62633828
POINT (-87.69399616197569 41.82288374127694),400101,ACERO - CISNEROS,2744 W PERSHING RD,ES,41.82288374,-87.69399616
POINT (-87.6872401588187 41.8459665885093),400104,INSTITUTO - HEALTH,2520 S WESTERN AVE,HS,41.84596659,-87.68724016
POINT (-87.63511669834385 41.77836949913844),400106,NOBLE - JOHNSON HS,6350 S STEWART AVE,HS,41.7783695,-87.6351167
POINT (-87.54557989281052 41.73333313363126),400107,LEARN - SOUTH CHICAGO,8914 S BUFFALO AVE,ES,41.73333313,-87.54557989
POINT (-87.66572105551435 41.74312177077591),400111,LEARN - PERKINS,1700 W 83RD ST,ES,41.74312177,-87.66572106
POINT (-87.70879678420529 41.80104241416496),400112,ACERO - IDAR,5050 S HOMAN AVE,ES,41.80104241,-87.70879678
POINT (-87.68989562475369 41.90034363524046),400114,ACERO - SANTIAGO,2510 W CORTEZ ST,ES,41.90034364,-87.68989562
POINT (-87.69307532262096 41.77099171900687),400115,CATALYST - MARIA ES,6727 S CALIFORNIA AVE,ES,41.77099955,-87.69308108
POINT (-87.66763900841296 41.767390113193215),400116,MONTESSORI ENGLEWOOD,6936 S HERMITAGE AVE,ES,41.76739011,-87.66763901
POINT (-87.6509867278126 41.73444162333336),400117,NOBLE - HANSBERRY HS,8748 S ABERDEEN ST,HS,41.73444162,-87.65098673
POINT (-87.7116542258578 41.86932807727719),400118,NOBLE - DRW HS,931 S HOMAN AVE,HS,41.86932808,-87.71165423
POINT (-87.7337783830973 41.88173275921721),400119,LEGAL PREP HS,4319 W WASHINGTON BLVD,HS,41.88173276,-87.73377838
POINT (-87.78783043795276 41.91795167982529),400120,ACERO - CLEMENTE,2050 N NATCHEZ AVE,ES,41.91795168,-87.78783044
POINT (-87.6844056815304 42.01647588249589),400121,ACERO - DE LA CRUZ,7416 N RIDGE BLVD,ES,42.01647588,-87.68440568
POINT (-87.7425388994401 41.88044718811725),400123,YCCS - SCHOLASTIC ACHIEVEMENT,4651 W MADISON ST,HS,41.88044719,-87.7425389
POINT (-87.62533077010677 41.84133116785302),400124,YCCS - MCKINLEY,2920 S WABASH AVE,HS,41.84133117,-87.62533077
POINT (-87.72713735988857 41.9381866032588),400125,YCCS - ASPIRA PANTOJA,3121 N PULASKI RD,HS,41.9381866,-87.72713736
POINT (-87.70685988381362 41.901572407492424),400126,YCCS - ASSOCIATION HOUSE,1116 N KEDZIE AVE,HS,41.90157241,-87.70685988
POINT (-87.72366217142837 41.864943352706916),400128,YCCS - CCA ACADEMY,1231 S PULASKI RD,HS,41.86494335,-87.72366217
POINT (-87.61584209880382 41.77416954865854),400129,YCCS - PROGRESSIVE LEADERSHIP,6620 S DR MARTIN LUTHER KING JR DR,HS,41.77416955,-87.6158421
POINT (-87.64173118628385 41.751377112625455),400130,YCCS - YOUTH DEVELOPMENT,7836 S UNION AVE,HS,41.75137711,-87.64173119
POINT (-87.69600602219901 41.90284969807005),400131,YCCS - CAMPOS,2739 W DIVISION ST,HS,41.9028497,-87.69600602
POINT (-87.6277341458495 41.88304717239688),400133,YCCS - INNOVATIONS,17 N. STATE ST.,HS,41.88304717,-87.62773415
POINT (-87.69543001380083 41.854664656300386),400135,YCCS - LATINO YOUTH,2001 S CALIFORNIA AVE,HS,41.85466466,-87.69543001
POINT (-87.59233320248318 41.71292210067985),400136,YCCS - OLIVE HARVEY,10001 S WOODLAWN AVE,HS,41.7129221,-87.5923332
POINT (-87.59933993995385 41.80969549635994),400137,LITTLE BLACK PEARL HS,1060 E 47TH ST,HS,41.8096955,-87.59933994
POINT (-87.57849166953392 41.746286570670634),400139,YCCS - SULLIVAN,8164 S SOUTH CHICAGO AVE,HS,41.74628657,-87.57849167
POINT (-87.65923928942215 41.96529481710454),400141,YCCS - TRUMAN,1145 W WILSON AVE,HS,41.96529482,-87.65923929
POINT (-87.70205280025758 41.89080312177814),400143,YCCS - WEST TOWN,500 N SACRAMENTO BLVD,HS,41.89080312,-87.7020528
POINT (-87.74881028902192 41.90224003228655),400144,YCCS - WEST,4909 W DIVISION ST,HS,41.90224003,-87.74881029
POINT (-87.6448879754731 41.857207856772895),400145,YCCS - YOUTH CONNECTION,1814 S UNION AVE,HS,41.857208,-87.644888
POINT (-87.74661383937638 41.89181614277191),400146,KIPP - ACADEMY,4818 W OHIO ST,ES,41.89181614,-87.74661384
POINT (-87.65372653786369 41.691969314452386),400147,CHICAGO EXCEL HS,1257 W 111TH ST,HS,41.69196931,-87.65372654
POINT (-87.68406493864745 41.84544601585059),400164,INSTITUTO - JUSTICE HS,2570 S BLUE ISLAND AVE,HS,41.84544602,-87.68406494
POINT (-87.71102498479794 41.80176224619306),400149,ACERO - SOTO HS,5025 S SAINT LOUIS AVE,HS,41.80176225,-87.71102498
POINT (-87.60697990878913 41.73013138496911),400150,YCCS - CHATHAM,9035 S LANGLEY AVE,HS,41.73013138,-87.60697991
POINT (-87.70141739135629 41.88731749110459),400151,LEARN - 7,3021 W CARROLL AVE,ES,41.88731749,-87.70141739
POINT (-87.69323838454847 41.813109445196304),400153,ACERO - BRIGHTON PARK,4420 S FAIRFIELD AVE,ES,41.81310945,-87.69323838
POINT (-87.60257331720773 41.706666859097496),400156,NOBLE - BUTLER HS,821 E 103RD ST,HS,41.70666686,-87.60257332
POINT (-87.5562014412362 41.734622371989694),400157,NOBLE - BAKER HS,2710 E 89TH ST,HS,41.73462237,-87.55620144
POINT (-87.75752152783717 41.92218115668891),400159,CHRISTOPHER HOUSE,5235 W BELDEN AVE,ES,41.92218116,-87.75752153
POINT (-87.61796787062896 41.67931844325373),400161,CHICAGO COLLEGIATE,11816 S INDIANA AVE,HS,41.67931844,-87.61796787
POINT (-87.741128626632 41.93898842845759),400162,INTRINSIC HS,4540 W BELMONT AVE,HS,41.93898843,-87.74112863
POINT (-87.63996733090822 41.7935562680176),400163,KIPP - BLOOM,5515 S LOWE AVE,ES,41.79355627,-87.63996733
POINT (-87.70272393872018 41.887319909492305),400165,LEARN - MIDDLE,3021 W CARROLL AVE,ES,41.88731991,-87.70272394
POINT (-87.68396339327373 41.79520095327123),400167,HORIZON - SOUTHWEST,5401 S. WESTERN,ES,41.79520095,-87.68396339
POINT (-87.75967517233124 41.917266409489365),400169,NOBLE - ITW SPEER HS,5321 W GRAND AVE,HS,41.91726641,-87.75967517
POINT (-87.64557693592364 41.906878795411906),400170,NOBLE - ACADEMY HS,1443 N OGDEN AVE,HS,41.9068788,-87.64557694
POINT (-87.70264475133735 41.808225785910054),400173,PATHWAYS - BRIGHTON PARK HS,3124 W. 47TH STREET,HS,41.80822579,-87.70264475
POINT (-87.55648708347292 41.75974864006715),400175,EXCEL SOUTH SHORE HS,7530 S SOUTH SHORE DR,HS,41.75974864,-87.55648708
POINT (-87.69095743847897 41.7649880298876),400176,EXCEL SOUTHWEST HS,7050 S WASHTENAW AVE,HS,41.76498803,-87.69095744
POINT (-87.57326751567166 41.73717393437062),609674,CHICAGO VOCATIONAL HS,2100 E 87TH ST,HS,41.73717393,-87.57326752
POINT (-87.61763743459431 41.84022557249074),609676,DUNBAR HS,3000 S KING DR,HS,41.84022557,-87.61763743
POINT (-87.62767532290775 41.873065923640695),609678,JONES HS,700 S STATE ST,HS,41.87306592,-87.62767532
POINT (-87.7610483156082 41.920059399822115),609679,PROSSER HS,2148 N LONG AVE,HS,41.9200594,-87.76104832
POINT (-87.63538476562529 41.90157516994749),609680,PAYTON HS,1034 N WELLS ST,HS,41.90157517,-87.63538477
POINT (-87.66227784586913 41.80288137577632),609682,RICHARDS HS,5009 S LAFLIN ST,HS,41.80288138,-87.66227785
POINT (-87.73523755587806 41.911673692889565),609691,NORTH-GRAND HS,4338 W WABANSIA AVE,HS,41.91167369,-87.73523756
POINT (-87.63541036887597 41.74578123102119),609692,SIMEON HS,8147 S VINCENNES AVE,HS,41.74578123,-87.63541037
POINT (-87.70733230829417 41.889977203933796),609693,WESTINGHOUSE HS,3223 W FRANKLIN BLVD,HS,41.8899772,-87.70733231
POINT (-87.75823761290182 41.77536594811712),609694,HANCOCK HS,5437 W 64TH PL,HS,41.77536595,-87.75823761
POINT (-87.6794842149401 41.97506725669093),609695,AMUNDSEN HS,5110 N DAMEN AVE,HS,41.97506726,-87.67948421
POINT (-87.72109744629029 41.7493756101307),609698,BOGAN HS,3939 W 79TH ST,HS,41.74937561,-87.72109745
POINT (-87.70870563224452 41.848559874659074),609704,FARRAGUT HS,2345 S CHRISTIANA AVE,HS,41.84855987,-87.70870563
POINT (-87.63757205079287 41.68995072532645),609705,FENGER HS,11220 S WALLACE ST,HS,41.68995073,-87.63757205
POINT (-87.75416654389804 41.93979676811428),609708,FOREMAN HS,3235 N LECLAIRE AVE,HS,41.93979677,-87.75416654
POINT (-87.68895394193714 41.791012839009404),609709,GAGE PARK HS,5630 S ROCKWELL ST,HS,41.79101284,-87.68895394
POINT (-87.62062343626336 41.71837234637158),609710,HARLAN HS,9652 S MICHIGAN AVE,HS,41.71837235,-87.62062344
POINT (-87.60172726635126 41.75374795595699),609712,HIRSCH HS,7740 S INGLESIDE AVE,HS,41.75374796,-87.60172727
POINT (-87.58661500993877 41.7822569274904),609713,HYDE PARK HS,6220 S STONY ISLAND AVE,HS,41.78225693,-87.58661501
POINT (-87.69463865990113 41.81872906388286),609715,KELLY HS,4136 S CALIFORNIA AVE,HS,41.81872906,-87.69463866
POINT (-87.73599882158199 41.92791840313646),609716,KELVYN PARK HS,4343 W WRIGHTWOOD AVE,HS,41.9279184,-87.73599882
POINT (-87.78083975510174 41.78996125295217),609718,KENNEDY HS,6325 W 56TH ST,HS,41.78996125,-87.78083976
POINT (-87.66895268957826 41.954764068043666),609719,LAKE VIEW HS,4015 N ASHLAND AVE,HS,41.95476407,-87.66895269
POINT (-87.69101262673284 41.94664457501988),609720,LANE TECH HS,2501 W ADDISON ST,HS,41.94664458,-87.69101263
POINT (-87.69989559043212 41.87093895657982),609722,MANLEY HS,2935 W POLK ST,HS,41.87093896,-87.69989559
POINT (-87.7080500697692 41.87844408594549),609723,MARSHALL HS,3250 W ADAMS ST,HS,41.87844409,-87.70805007
POINT (-87.70249639568888 41.98758868269134),609724,MATHER HS,5835 N LINCOLN AVE,HS,41.98758868,-87.7024964
POINT (-87.6656575452126 41.6920350096695),609725,MORGAN PARK HS,1744 W PRYOR AVE,HS,41.69203501,-87.66565755
POINT (-87.61635260656351 41.692762529209666),609726,BROOKS HS,250 E 111TH ST,HS,41.69276253,-87.61635261
POINT (-87.61979634571992 41.823879968186276),609727,PHILLIPS HS,244 E PERSHING RD,HS,41.82387997,-87.61979635
POINT (-87.71481861559175 41.96482788461816),609728,ROOSEVELT HS,3436 W WILSON AVE,HS,41.96482788,-87.71481862
POINT (-87.73561211047462 41.94636454357682),609729,SCHURZ HS,3601 N MILWAUKEE AVE,HS,41.94636454,-87.73561211
POINT (-87.667136189812 41.98902853931667),609730,SENN HS,5900 N GLENWOOD AVE,HS,41.98902854,-87.66713619
POINT (-87.78351523287553 41.93563358807806),609732,STEINMETZ HS,3030 N MOBILE AVE,HS,41.93563359,-87.78351523
POINT (-87.66919214533206 42.002687558850624),609733,SULLIVAN HS,6631 N BOSWORTH AVE,HS,42.00268756,-87.66919215
POINT (-87.79154724940713 41.982960987035106),609734,TAFT HS,6530 W BRYN MAWR AVE,HS,41.98296099,-87.79154725
POINT (-87.64296648353964 41.807510071768675),609735,TILDEN HS,4747 S UNION AVE,HS,41.80751007,-87.64296648
POINT (-87.71338625327847 41.97318504890794),609737,VON STEUBEN HS,5039 N KIMBALL AVE,HS,41.97318505,-87.71338625
POINT (-87.64600935975368 41.91826831157666),609738,LINCOLN PARK HS,2001 N ORCHARD ST,HS,41.91826831,-87.64600936
POINT (-87.53757030026813 41.68813693640528),609739,WASHINGTON HS,3535 E 114TH ST,HS,41.68813694,-87.5375703
POINT (-87.6674828689552 41.8989947078006),609740,WELLS HS,936 N ASHLAND AVE,HS,41.89899471,-87.66748287
POINT (-87.71801374322327 41.78052638742506),609741,HUBBARD HS,6200 S HAMLIN AVE,HS,41.78052639,-87.71801374
POINT (-87.7223862154349 41.982972522052755),609744,NORTHSIDE LEARNING HS,3730 W BRYN MAWR AVE,HS,41.98297252,-87.72238622
POINT (-87.6759467675532 41.75985242920463),609745,SOUTHSIDE HS,7342 S HOYNE AVE,HS,41.75985243,-87.67594677
POINT (-87.59042088944331 41.80377211930976),609746,KENWOOD HS,5015 S BLACKSTONE AVE,HS,41.80377212,-87.59042089
POINT (-87.67332725897171 41.807112132241585),609983,HEDGES,4747 S WINCHESTER AVE,ES,41.80711213,-87.67332726
POINT (-87.73580189344487 41.8786646476869),609985,HEFFERAN,4409 W WILCOX ST,ES,41.87866465,-87.73580189
POINT (-87.67188730719717 41.79059128727437),609986,HENDERSON,5650 S WOLCOTT AVE,ES,41.79059129,-87.67188731
POINT (-87.63366447727043 41.81578775166543),609987,HENDRICKS,4316 S PRINCETON AVE,ES,41.81578775,-87.63366448
POINT (-87.71563237169222 41.958988797844434),609988,HENRY,4250 N SAINT LOUIS AVE,ES,41.9589888,-87.71563237
POINT (-87.62834918762444 41.85974068123942),609990,SOUTH LOOP,1601 S DEARBORN ST,ES,41.85974068,-87.62834919
POINT (-87.71899385436596 41.862081297002476),609991,HERZL,3711 W DOUGLAS BLVD,ES,41.8620813,-87.71899385
POINT (-87.67218159329352 41.80977029709816),609993,LARA,4619 S WOLCOTT AVE,ES,41.8097703,-87.67218159
POINT (-87.7103616137838 41.97033523524266),609994,HIBBARD,3244 W AINSLIE ST,ES,41.97033524,-87.71036161
POINT (-87.77912305213577 41.98367169603206),609995,HITCH,5625 N MCVICKER AVE,ES,41.9836717,-87.77912305
POINT (-87.6537916683059 41.838027387840015),609996,HOLDEN,1104 W 31ST ST,ES,41.83802739,-87.65379167
POINT (-87.64979535547367 41.793787649440894),609997,HOLMES,955 W GARFIELD BLVD,ES,41.79378765,-87.64979536
POINT (-87.84104144264339 41.9737147776216),609874,DIRKSEN,8601 W FOSTER AVE,ES,41.97371478,-87.84104144
POINT (-87.70541291384018 41.92332271762725),609875,DARWIN,3116 W BELDEN AVE,ES,41.92332272,-87.70541291
POINT (-87.70020216025382 41.82185161457909),609876,DAVIS N,3014 W 39TH PL,ES,41.82185161,-87.70020216
POINT (-87.71735342362514 41.745077752136964),609879,DAWES,3810 W 81ST PL,ES,41.74507775,-87.71735342
POINT (-87.70461859321614 42.00928855783928),609880,DECATUR,7030 N SACRAMENTO AVE,ES,42.00928856,-87.70461859
POINT (-87.62334458925652 41.76249026426273),609883,DENEEN,7240 S WABASH AVE,ES,41.76249026,-87.62334459
POINT (-87.65097986936037 41.952809512018526),609850,GREELEY,832 W SHERIDAN RD,ES,41.95280951,-87.65097987
POINT (-87.69525936853255 41.866435252164464),609851,CHALMERS,2745 W ROOSEVELT RD,ES,41.86643525,-87.69525937
POINT (-87.68326359189945 41.97589430074945),609852,CHAPPELL,2135 W FOSTER AVE,ES,41.9758943,-87.68326359
POINT (-87.69456225148964 41.91799265365829),609853,CHASE,2021 N POINT ST,ES,41.91799265,-87.69456225
POINT (-87.68893676244511 41.896712688974574),609854,CHOPIN,2450 W RICE ST,ES,41.89671269,-87.68893676
POINT (-87.68560700306014 41.801658624976334),609855,CHRISTOPHER,5042 S ARTESIAN AVE,ES,41.80165862,-87.685607
POINT (-87.54461359768155 41.65455814916959),609856,CLAY,13231 S BURLEY AVE,ES,41.65455815,-87.5446136
POINT (-87.70644252545556 41.95204212165583),609857,CLEVELAND,3121 W BYRON ST,ES,41.95204212,-87.70644253
POINT (-87.69835995431187 41.99254136034414),609859,CLINTON,6110 N FAIRFIELD AVE,ES,41.99254136,-87.69835995
POINT (-87.6952610158726 41.84253334875318),609748,YORK HS,2700 S CALIFORNIA AVE,HS,41.84253335,-87.69526102
POINT (-87.70870780076544 41.981315282967195),609749,NORTHSIDE PREP HS,5501 N KEDZIE AVE,HS,41.98131528,-87.7087078
POINT (-87.66872222930535 41.86436548289566),609750,SIMPSON HS,1321 S PAULINA ST,HS,41.86436548,-87.66872223
POINT (-87.60387386163252 41.81367545291389),609751,KING HS,4445 S DREXEL BLVD,HS,41.81367545,-87.60387386
POINT (-87.71776967268035 41.69122074256613),609753,CHICAGO AGRICULTURE HS,3857 W 111TH ST,HS,41.69122074,-87.71776967
POINT (-87.61921554222698 41.830554977896526),609754,CHICAGO MILITARY HS,3519 S GILES AVE,HS,41.83055498,-87.61921554
POINT (-87.66423334339177 41.87860253314468),609755,YOUNG HS,211 S LAFLIN ST,HS,41.87860253,-87.66423334
POINT (-87.72204165467048 41.80306020749885),609756,CURIE HS,4959 S ARCHER AVE,HS,41.80306021,-87.72204165
POINT (-87.68690614584489 41.90262579240016),609759,CLEMENTE HS,1147 N WESTERN AVE,HS,41.90262579,-87.68690615
POINT (-87.59062038514644 41.65628995219592),609760,CARVER MILITARY HS,13100 S DOTY AVE,HS,41.65628995,-87.59062039
POINT (-87.60121587665117 41.706659617200714),609761,CORLISS HS,821 E 103RD ST,HS,41.70665962,-87.60121588
POINT (-87.6537492107625 41.70585893637169),609762,JULIAN HS,10330 S ELIZABETH ST,HS,41.70585894,-87.65374921
POINT (-87.66433930957464 41.85267013653496),609764,JUAREZ HS,1450 W CERMAK RD,HS,41.85267014,-87.66433931
POINT (-87.76466317335579 41.96036379668939),609766,VAUGHN HS,4355 N LINDER AVE,HS,41.9603638,-87.76466317
POINT (-87.62531481526543 41.84967541789528),609769,GRAHAM HS,2347 S WABASH AVE,HS,41.84967542,-87.62531482
POINT (-87.53297604180848 41.69873879985471),609772,ADDAMS,10810 S AVENUE H,ES,41.6987388,-87.53297604
POINT (-87.65622866743873 41.934126298321104),609773,TUBMAN,2851 N SEMINARY AVE,ES,41.9341263,-87.65622867
POINT (-87.6506531564894 41.83385390963618),609777,ARMOUR,950 W 33RD PL,ES,41.83385391,-87.65065316
POINT (-87.684441827352 42.0101499845778),609779,ARMSTRONG G,2110 W GREENLEAF AVE,ES,42.01014998,-87.68444183
POINT (-87.72174231677363 41.91604463388892),609780,MARINE LEADERSHIP AT AMES HS,1920 N HAMLIN AVE,HS,41.91604463,-87.72174232
POINT (-87.68104105312949 41.945062225133384),609782,AUDUBON,3500 N HOYNE AVE,ES,41.94506223,-87.68104105
POINT (-87.68041755456284 41.86783228544357),609783,JEFFERSON HS,1100 S HAMILTON AVE,HS,41.86783229,-87.68041755
POINT (-87.59165381084243 41.7482469947632),609786,AVALON PARK,8045 S KENWOOD AVE,ES,41.74824699,-87.59165381
POINT (-87.65807422405449 41.70513101209168),609788,BARNARD,10354 S CHARLES ST,ES,41.70513101,-87.65807422
POINT (-87.7393883510253 41.93251058361088),609789,BARRY,2828 N KILBOURN AVE,ES,41.93251058,-87.73938835
POINT (-87.6535324201886 41.774246450840245),609791,BASS,1140 W 66TH ST,ES,41.77424645,-87.65353242
POINT (-87.70215096178191 41.95821983971195),609792,BATEMAN,4220 N RICHMOND ST,ES,41.95821984,-87.70215096
POINT (-87.6474528424479 41.78494238059165),609793,NICHOLSON,6006 S PEORIA ST,ES,41.78494238,-87.64745284
POINT (-87.70930366576525 41.971506097334284),609794,EDISON,4929 N SAWYER AVE,ES,41.9715061,-87.70930367
POINT (-87.77041752737654 41.867812568331274),609795,CLARK ES,1045 S MONITOR AVE,ES,41.86781257,-87.77041753
POINT (-87.75756503917468 41.9723939455035),609796,BEAUBIEN,5025 N LARAMIE AVE,ES,41.97239395,-87.75756504
POINT (-87.70585481199942 41.88532104029221),609797,BEIDLER,3151 W WALNUT ST,ES,41.88532104,-87.70585481
POINT (-87.73401972966421 41.95893849446586),609798,BELDING,4257 N TRIPP AVE,ES,41.95893849,-87.73401973
POINT (-87.68601824432598 41.94952979906334),609799,BELL,3730 N OAKLEY AVE,ES,41.9495298,-87.68601824
POINT (-87.61739045569266 41.71043494922478),609800,BENNETT,10115 S PRAIRIE AVE,ES,41.71043495,-87.61739046
POINT (-87.66496784466541 41.950780518888934),609803,BLAINE,1420 W GRACE ST,ES,41.95078052,-87.66496784
POINT (-87.69746282204993 42.003411608113325),609804,MOSAIC,6710 N WASHTENAW AVE,ES,42.00341161,-87.69746282
POINT (-87.669365649609 41.749339161594726),609805,JOPLIN,7931 S HONORE ST,ES,41.74933916,-87.66936565
POINT (-87.55714197102563 41.7543651320386),609806,BRADWELL,7736 S BURNHAM AVE,ES,41.75436513,-87.55714197
POINT (-87.70873128447045 41.75345719344417),609807,HAMPTON,3434 W 77TH ST,ES,41.75345719,-87.70873128
POINT (-87.63363213618663 41.68665997028622),609808,HALEY,11411 S EGGLESTON AVE,ES,41.68665997,-87.63363214
POINT (-87.6962941983605 41.9309660966305),609809,BRENTANO,2723 N FAIRFIELD AVE,ES,41.9309661,-87.6962942
POINT (-87.79866892055921 41.94911438709591),609810,BRIDGE,3800 N NEW ENGLAND AVE,ES,41.94911439,-87.79866892
POINT (-87.56208422998444 41.69972622184482),609811,BRIGHT,10740 S CALHOUN AVE,ES,41.69972622,-87.56208423
POINT (-87.670682390474 41.882996784951416),609812,BROWN W,54 N HERMITAGE AVE,ES,41.88299678,-87.67068239
POINT (-87.62174596835749 41.77162035986941),609813,BROWNELL,6741 S MICHIGAN AVE,ES,41.77162036,-87.62174597
POINT (-87.57607485711404 41.760847480740246),609815,BOUCHET,7355 S JEFFERY BLVD,ES,41.76084748,-87.57607486
POINT (-87.69655603217366 41.97575433056882),609817,BUDLONG,2701 W FOSTER AVE,ES,41.97575433,-87.69655603
POINT (-87.78269957085668 41.91759813829286),609818,BURBANK,2035 N MOBILE AVE,ES,41.91759814,-87.78269957
POINT (-87.61614052358684 41.79675956452626),609819,BURKE,5356 S KING DR,ES,41.79675956,-87.61614052
POINT (-87.6698531241136 41.93793747440904),609820,BURLEY,1630 W BARRY AVE,ES,41.93793747,-87.66985312
POINT (-87.56713059135636 41.71440206254013),609821,BURNHAM,9928 S CRANDON AVE,ES,41.71440206,-87.56713059
POINT (-87.60743532128012 41.7284806386971),609827,BURNSIDE,650 E 91ST PL,ES,41.72848064,-87.60743532
POINT (-87.66866060376512 41.9123579080947),609828,BURR,1621 W WABANSIA AVE,ES,41.91235791,-87.6686606
POINT (-87.69245662922016 41.82886790732969),609829,BURROUGHS,3542 S WASHTENAW AVE,ES,41.82886791,-87.69245663
POINT (-87.76560565853231 41.89766257243393),609830,BRUNSON,932 N CENTRAL AVE,ES,41.89766257,-87.76560566
POINT (-87.79154448269146 41.79503096523667),609832,BYRNE,5329 S OAK PARK AVE,ES,41.79503097,-87.79154448
POINT (-87.58072902766371 41.73922635527386),609833,DAISY BATES,8546 S CREGIER AVE,ES,41.73922636,-87.58072903
POINT (-87.71731895268584 41.84369811838543),609834,LITTLE VILLAGE,2620 S LAWNDALE AVE,ES,41.84369812,-87.71731895
POINT (-87.71792663519541 41.90379211793748),609835,CAMERON,1234 N MONTICELLO AVE,ES,41.90379212,-87.71792664
POINT (-87.82929570100906 41.94800702810348),609836,CANTY,3740 N PANAMA AVE,ES,41.94800703,-87.8292957
POINT (-87.59079500924979 41.78336832349863),609837,CARNEGIE,1414 E 61ST PL,ES,41.78336832,-87.59079501
POINT (-87.69601207512635 41.74251662656278),609839,CARROLL,2929 W 83RD ST,ES,41.74251663,-87.69601208
POINT (-87.68779954321069 41.79327214417274),609842,CARSON,5516 S MAPLEWOOD AVE,ES,41.79327214,-87.68779954
POINT (-87.62245275190281 41.789827905260886),609844,CARTER,5740 S MICHIGAN AVE,ES,41.78982791,-87.62245275
POINT (-87.59951563219367 41.65370211623904),609845,CARVER G,901 E 133RD PL,ES,41.65370212,-87.59951563
POINT (-87.60647384690455 41.657404970395035),609848,ALDRIDGE,630 E 131ST ST,ES,41.65740497,-87.60647385
POINT (-87.70321548827788 41.687347055372065),609849,CASSELL,11314 S SPAULDING AVE,ES,41.68734706,-87.70321549
POINT (-87.68089678721267 41.693026006425264),609861,CLISSOLD,2350 W 110TH PL,ES,41.69302601,-87.68089679
POINT (-87.56596977181225 41.741412807207716),609862,COLES,8441 S YATES BLVD,ES,41.74141281,-87.56596977
POINT (-87.68193804931471 41.899565775672244),609863,COLUMBUS,1003 N LEAVITT ST,ES,41.89956578,-87.68193805
POINT (-87.65977458979329 41.745237022210155),609864,COOK,8150 S BISHOP ST,ES,41.74523702,-87.65977459
POINT (-87.67776251684455 42.01708759181053),609865,JORDAN,7414 N WOLCOTT AVE,ES,42.01708759,-87.67776252
POINT (-87.68376530075336 41.95555319552944),609866,COONLEY,4046 N LEAVITT ST,ES,41.9555532,-87.6837653
POINT (-87.66722708445164 41.856031192763744),609867,COOPER,1624 W 19TH ST,ES,41.85603119,-87.66722708
POINT (-87.65716920536804 41.784680861344654),609869,LANGFORD,6010 S THROOP ST,ES,41.78468086,-87.65716921
POINT (-87.73119286567506 41.84560242225936),609870,CORKERY,2510 S KILDARE AVE,ES,41.84560242,-87.73119287
POINT (-87.68567659787564 41.68819083819127),609871,VICK,2554 W 113TH ST,ES,41.68819084,-87.6856766
POINT (-87.65798012768776 41.8560287233007),609872,PEREZ,1241 W 19TH ST,ES,41.85602872,-87.65798013
POINT (-87.71247015060496 41.852663488490364),609873,CROWN,2128 S SAINT LOUIS AVE,ES,41.85266349,-87.71247015
POINT (-87.60466040817987 41.70755761761671),609978,SMITH,744 E 103RD ST,ES,41.70755762,-87.60466041
POINT (-87.64034074984373 41.83959485632815),609979,HEALY,3010 S PARNELL AVE,ES,41.83959486,-87.64034075
POINT (-87.7457260568626 41.80817500004484),609981,HEARST,4640 S LAMON AVE,ES,41.808175,-87.74572606
POINT (-87.81313152527642 41.94255167033053),609884,DEVER,3436 N OSCEOLA AVE,ES,41.94255167,-87.81313153
POINT (-87.64265157842041 41.79564568383266),609885,DEWEY,5415 S UNION AVE,ES,41.79564568,-87.64265158
POINT (-87.6099788745366 41.74366924214822),609887,DIXON,8306 S SAINT LAWRENCE AVE,ES,41.74366924,-87.60997887
POINT (-87.6122745429816 41.831120629145424),609891,DOOLITTLE,535 E 35TH ST,ES,41.83112063,-87.61227454
POINT (-87.79935927031792 41.77389881609562),609893,DORE,7134 W 65TH ST,ES,41.77389882,-87.79935927
POINT (-87.62855344657883 41.84404331290217),609894,DRAKE,2710 S DEARBORN ST,ES,41.84404331,-87.62855345
POINT (-87.63016447884762 41.72560921647962),609895,TURNER-DREW,9300 S PRINCETON AVE,ES,41.72560922,-87.63016448
POINT (-87.67449459892646 41.915913801918414),609896,DRUMMOND,1845 W CORTLAND ST,ES,41.9159138,-87.6744946
POINT (-87.67554666011665 41.78122517332755),609897,EARLE,2040 W 62ND ST,ES,41.78122517,-87.67554666
POINT (-87.70795263347404 41.77442045239029),609898,EBERHART,3400 W 65TH PL,ES,41.77442045,-87.70795263
POINT (-87.81116978484944 42.00440792197846),609899,EBINGER,7350 W PRATT AVE,ES,42.00440792,-87.81116978
POINT (-87.62165260757286 41.68541840046828),609900,CURTIS,32 E 115TH ST,ES,41.6854184,-87.62165261
POINT (-87.7618404744276 41.99943683361328),609901,EDGEBROOK,6525 N HIAWATHA AVE,ES,41.99943683,-87.76184047
POINT (-87.63430552124305 41.66944402318812),609902,METCALFE,12339 S NORMAL AVE,ES,41.66944402,-87.63430552
POINT (-87.72585617789449 41.80554153990772),609903,EDWARDS,4815 S KARLOV AVE,ES,41.80554154,-87.72585618
POINT (-87.76658937770817 41.8855295805767),609904,ELLINGTON,243 N PARKSIDE AVE,ES,41.88552958,-87.76658938
POINT (-87.71580443149537 41.87574412345218),609907,ERICSON,3600 W 5TH AVE,ES,41.87574412,-87.71580443
POINT (-87.66915866998323 41.68941960634023),609908,ESMOND,1865 W MONTVALE AVE,ES,41.68941961,-87.66915867
POINT (-87.68131030371634 41.831555161458105),609909,EVERETT,3419 S BELL AVE,ES,41.83155516,-87.6813103
POINT (-87.74933062513712 41.93578457379858),609910,FALCONER,3020 N LAMON AVE,ES,41.93578457,-87.74933063
POINT (-87.76607165818339 41.979790055723456),609912,FARNSWORTH,5414 N LINDER AVE,ES,41.97979006,-87.76607166
POINT (-87.64041364557237 41.711183623039645),609917,FERNWOOD,10041 S UNION AVE,ES,41.71118362,-87.64041365
POINT (-87.66998540066848 42.00966385552348),609918,FIELD,7019 N ASHLAND AVE,ES,42.00966386,-87.6699854
POINT (-87.60863289646439 41.78518281665416),609919,FISKE,6020 S LANGLEY AVE,ES,41.78518282,-87.6086329
POINT (-87.70511207709724 41.85077148441029),609920,KANOON,2233 S KEDZIE AVE,ES,41.85077148,-87.70511208
POINT (-87.69600587941659 41.847947432557646),609921,TELPOCHCALLI,2832 W 24TH BLVD,ES,41.84794743,-87.69600588
POINT (-87.75795257359303 41.92160395732739),609922,BELMONT-CRAGIN,6112 W. FULLERTON AVE,ES,41.92160396,-87.75795257
POINT (-87.65548116090038 41.729672674916365),609924,FORT DEARBORN,9025 S THROOP ST,ES,41.72967267,-87.65548116
POINT (-87.70216290437166 41.870167717963255),609925,KELLMAN,3030 W ARTHINGTON ST,ES,41.87016772,-87.7021629
POINT (-87.63551281030695 41.90659999028463),609926,FRANKLIN,225 W EVERGREEN AVE,ES,41.90659999,-87.63551281
POINT (-87.66809931233524 41.738425478030514),609927,FOSTER PARK,8530 S WOOD ST,ES,41.73842548,-87.66809931
POINT (-87.61178404264487 41.81800340373774),609928,FULLER,4214 S ST LAWRENCE AVE,ES,41.8180034,-87.61178404
POINT (-87.66843588179444 41.797580270819736),609929,FULTON,5300 S HERMITAGE AVE,ES,41.79758027,-87.66843588
POINT (-87.7168916647972 41.917616514559576),609930,FUNSTON,2010 N CENTRAL PARK AVE,ES,41.91761651,-87.71689166
POINT (-87.67193897620132 42.02109055801793),609933,GALE,1631 W JONQUIL TER,ES,42.02109056,-87.67193898
POINT (-87.53517530584453 41.70680099962663),609935,GALLISTEL,10347 S EWING AVE,ES,41.706801,-87.53517531
POINT (-87.79623511406561 41.97635166409545),609937,GARVY,5225 N OAK PARK AVE,ES,41.97635166,-87.79623511
POINT (-87.71869663581873 41.83706515201418),609938,GARY,3740 W 31ST ST,ES,41.83706515,-87.71869664
POINT (-87.62371943749258 41.725332279337024),609939,GILLESPIE,9301 S STATE ST,ES,41.72533228,-87.62371944
POINT (-87.67596551355214 41.76061412751702),609941,RANDOLPH,7316 S HOYNE AVE,ES,41.76061413,-87.67596551
POINT (-87.69289969582285 41.9228310074301),609942,GOETHE,2236 N ROCKWELL ST,ES,41.92283101,-87.6928997
POINT (-87.6225456606249 41.67061754028674),609943,OWENS,12302 S STATE ST,ES,41.67061754,-87.62254566
POINT (-87.55330671028274 41.66248099895759),609944,GRISSOM,12810 S ESCANABA AVE,ES,41.662481,-87.55330671
POINT (-87.65791249239345 41.97581653042204),609945,GOUDY,5120 N WINTHROP AVE,ES,41.97581653,-87.65791249
POINT (-87.6433442356135 41.813303729722655),609947,GRAHAM ES,4436 S UNION AVE,ES,41.81330373,-87.64334424
POINT (-87.7571155985857 41.94876357956856),609949,GRAY,3730 N LARAMIE AVE,ES,41.94876358,-87.7571156
POINT (-87.71719032015145 41.83879052013291),609950,ORTIZ DE DOMINGUEZ,3000 S LAWNDALE AVE,ES,41.83879052,-87.71719032
POINT (-87.59750293094838 41.811173462472446),609951,ARIEL,1119 E 46TH ST,ES,41.81117346,-87.59750293
POINT (-87.67149236961683 41.829669281400754),609952,GREENE,3525 S HONORE ST,ES,41.82966928,-87.67149237
POINT (-87.7186661290114 41.870742162718614),609954,GREGORY,3715 W POLK ST,ES,41.87074216,-87.71866613
POINT (-87.645025237443 41.73892015780208),609955,GRESHAM,8524 S GREEN ST,ES,41.73892016,-87.64502524
POINT (-87.75880329371445 41.77546426147621),609956,GRIMES,5450 W 64TH PL,ES,41.77546426,-87.75880329
POINT (-87.6993641851919 41.81300737026435),609958,GUNSAULUS,4420 S SACRAMENTO AVE,ES,41.81300737,-87.69936419
POINT (-87.63380633094783 41.849958316259276),609959,HAINES,247 W 23RD PL,ES,41.84995832,-87.63380633
POINT (-87.75581325275648 41.89917135566546),609975,HAY,1018 N LARAMIE AVE,ES,41.89917136,-87.75581325
POINT (-87.66850377465954 41.99454088653139),609976,HAYT,1518 W GRANVILLE AVE,ES,41.99454089,-87.66850377
POINT (-87.59439199559556 41.773365532331404),609977,WOODLAWN,6657 S KIMBARK AVE,ES,41.77336553,-87.594392
POINT (-87.75939838513513 41.893612211405035),610000,HOWE,720 N LOREL AVE,ES,41.89361221,-87.75939839
POINT (-87.56822810166979 41.733337752574805),610002,HOYNE,8905 S CRANDON AVE,ES,41.73333775,-87.5682281
POINT (-87.65363344706347 41.74245162733435),610003,CUFFE,8324 S RACINE AVE,ES,41.74245163,-87.65363345
POINT (-87.6112444584194 41.7003351416487),610004,CULLEN,10650 S EBERHART AVE,ES,41.70033514,-87.61124446
POINT (-87.73177738713366 41.86051773855266),610005,HUGHES C,4247 W 15TH ST,ES,41.86051774,-87.73177739
POINT (-87.71954083262504 41.7667852820048),610006,HURLEY,3849 W 69TH PL,ES,41.76678528,-87.71954083
POINT (-87.65336555308112 41.87125482472933),610009,GALILEO,820 S CARPENTER ST,ES,41.87125482,-87.65336555
POINT (-87.67580971870039 41.93924749728918),610010,JAHN,3149 N WOLCOTT AVE,ES,41.9392475,-87.67580972
POINT (-87.70052941983768 41.98464077674645),610011,JAMIESON,5650 N MOZART ST,ES,41.98464078,-87.70052942
POINT (-87.66220943342506 41.858848875940005),610013,PILSEN,1420 W 17TH ST,ES,41.85884888,-87.66220943
POINT (-87.652301594476 41.85806477719165),610015,JUNGMAN,1746 S MILLER ST,ES,41.85806478,-87.65230159
POINT (-87.6772325060255 41.725263440198454),610016,KELLOGG,9241 S LEAVITT ST,ES,41.72526344,-87.67723251
POINT (-87.69731553741039 41.84794071630535),610017,SAUCEDO,2850 W 24TH BLVD,ES,41.84794072,-87.69731554
POINT (-87.64089202543336 41.776452810672204),610019,KERSHAW,6450 S LOWE AVE,ES,41.77645281,-87.64089203
POINT (-87.71423364671361 41.90450276453822),610021,CASALS,3501 W POTOMAC AVE,ES,41.90450276,-87.71423365
POINT (-87.81205403976107 41.97850137694033),610105,ORIOLE PARK,5424 N OKETO AVE,ES,41.97850138,-87.81205404
POINT (-87.73126059627785 41.90013965620259),610106,PICCOLO,1040 N KEELER AVE,ES,41.90013966,-87.7312606
POINT (-87.6654262359055 41.891806082074325),610107,OTIS,525 N ARMOUR ST,ES,41.89180608,-87.66542624
POINT (-87.67486500006082 41.77457107364163),610108,OTOOLE,6550 S SEELEY AVE,ES,41.77457107,-87.674865
POINT (-87.7057490877654 41.742849922135825),610109,OWEN,8247 S CHRISTIANA AVE,ES,41.74284992,-87.70574909
POINT (-87.61977966040402 41.82735526681686),610110,WELLS ES,249 E 37TH ST,ES,41.82735527,-87.61977966
POINT (-87.7392129454413 41.973289393237266),610111,PALMER,5051 N KENNETH AVE,ES,41.97328939,-87.73921295
POINT (-87.63408585602906 41.77077979594969),610112,PARKER,6800 S STEWART AVE,ES,41.7707798,-87.63408586
POINT (-87.61154559300769 41.76647654327396),610115,PARK MANOR,7037 S RHODES AVE,ES,41.76647654,-87.61154559
POINT (-87.776578709076 41.78019173205768),609960,HALE,6140 S MELVINA AVE,ES,41.78019173,-87.77657871
POINT (-87.5518617188553 41.74375308333691),609961,NINOS HEROES,8344 S COMMERCIAL AVE,ES,41.74375308,-87.55186172
POINT (-87.67086537302534 41.945219655012096),609963,HAMILTON,1650 W CORNELIA AVE,ES,41.94521966,-87.67086537
POINT (-87.66117465983096 41.8072415580971),609964,HAMLINE,4747 S BISHOP ST,ES,41.80724156,-87.66117466
POINT (-87.69624330090753 41.85271913493636),609966,HAMMOND,2819 W 21ST PL,ES,41.85271913,-87.6962433
POINT (-87.68566784265742 41.849214905972595),609967,FINKL,2332 S WESTERN AVE,ES,41.84921491,-87.68566784
POINT (-87.72393113203223 41.91481634183787),609968,MCAULIFFE,1841 N SPRINGFIELD AVE,ES,41.91481634,-87.72393113
POINT (-87.5868545966883 41.793447243737454),609969,HARTE,1556 E 56TH ST,ES,41.79344724,-87.5868546
POINT (-87.6327368742143 41.75734054221767),609971,HARVARD,7525 S HARVARD,ES,41.75734054,-87.63273687
POINT (-87.72312803497186 41.964028709230114),609972,HAUGAN,4540 N HAMLIN AVE,ES,41.96402871,-87.72312803
POINT (-87.73431332380245 41.841393804183916),609973,ZAPATA,2728 S KOSTNER AVE,ES,41.8413938,-87.73431332
POINT (-87.65770887712425 41.94227548887215),609974,HAWTHORNE,3319 N CLIFTON AVE,ES,41.94227549,-87.65770888
POINT (-87.66822246663591 42.00364046332001),610022,KILMER,6700 N GREENVIEW AVE,ES,42.00364046,-87.66822247
POINT (-87.71601740733605 41.84848777069266),610024,CARDENAS,2345 S MILLARD AVE,ES,41.84848777,-87.71601741
POINT (-87.77948259997895 41.78996463453089),610026,KINZIE,5625 S MOBILE AVE,ES,41.78996463,-87.7794826
POINT (-87.63952072118772 41.723626906092285),610027,KIPLING,9351 S LOWE AVE,ES,41.72362691,-87.63952072
POINT (-87.66509327198196 41.90888612838145),610029,LOZANO,1501 N GREENVIEW AVE,ES,41.90888613,-87.66509327
POINT (-87.6024814478024 41.79800187835823),610030,KOZMINSKI,936 E 54TH ST,ES,41.79800188,-87.60248145
POINT (-87.6525001391931 41.719291947818064),610032,GREEN,1150 W 96TH ST,ES,41.71929195,-87.65250014
POINT (-87.63756486350428 41.91389953306324),610033,LASALLE,1734 N ORLEANS ST,ES,41.91389953,-87.63756486
POINT (-87.71295678679863 41.86296002483749),610034,LAWNDALE,3500 W DOUGLAS BLVD,ES,41.86296002,-87.71295679
POINT (-87.75454995057395 41.90682605025908),610036,LEWIS,1431 N LEAMINGTON AVE,ES,41.90682605,-87.75454995
POINT (-87.65993281794721 41.7976848325799),610037,LIBBY,5300 S LOOMIS BLVD,ES,41.79768483,-87.65993282
POINT (-87.64449730394374 41.92452481637319),610038,LINCOLN,615 W KEMPER PL,ES,41.92452482,-87.6444973
POINT (-87.70263467429581 41.940009280334706),610039,VON LINNE,3221 N SACRAMENTO AVE,ES,41.94000928,-87.70263467
POINT (-87.74851501350814 41.91881409631407),610040,LLOYD,2103 N LAMON AVE,ES,41.9188141,-87.74851501
POINT (-87.79560407108082 41.9317623546919),610041,LOCKE J,2828 N OAK PARK AVE,ES,41.93176235,-87.79560407
POINT (-87.78391884683755 41.91271802714923),610043,LOVETT,6333 W BLOOMINGDALE AVE,ES,41.91271803,-87.78391885
POINT (-87.71021700195341 41.9065195914638),610044,LOWELL,3320 W HIRSCH ST,ES,41.90651959,-87.710217
POINT (-87.77717419891071 41.934192162780626),610046,LYON,2941 N MCVICKER AVE,ES,41.93419216,-87.7771742
POINT (-87.59071239556958 41.759548060123095),610047,MADISON,7433 S DORCHESTER AVE,ES,41.75954806,-87.5907124
POINT (-87.63982651348373 41.90824688239234),610048,MANIERRE,1420 N HUDSON AVE,ES,41.90824688,-87.63982651
POINT (-87.7579205092804 41.92061097131673),610051,NORTHWEST,5252 W PALMER ST,ES,41.92061097,-87.75792051
POINT (-87.57481563732195 41.74827412767255),610052,MANN,8050 S CHAPPEL AVE,ES,41.74827413,-87.57481564
POINT (-87.69702979922423 41.773881080232854),610053,MARQUETTE,6550 S RICHMOND ST,ES,41.77388108,-87.6970298
POINT (-87.55248342628978 41.716588015005776),610054,MARSH,9822 S EXCHANGE AVE,ES,41.71658802,-87.55248343
POINT (-87.70809202043932 41.87971359144001),610055,FARADAY,3250 W MONROE ST,ES,41.87971359,-87.70809202
POINT (-87.73167243316915 41.85686370110197),610056,MASON,4217 W 18TH ST,ES,41.8568637,-87.73167243
POINT (-87.69211506377145 41.78090389857902),610057,FAIRFIELD,6201 S FAIRFIELD AVE,ES,41.7809039,-87.69211506
POINT (-87.65728743906128 41.92320352237662),610059,MAYER,2250 N CLIFTON AVE,ES,41.92320352,-87.65728744
POINT (-87.66098467184608 41.87429963866338),610060,CHICAGO WORLD LANGUAGE ACADEMY,1340 W HARRISON ST,ES,41.87429964,-87.66098467
POINT (-87.64110257531904 41.82999286351858),610062,MINOSO,3527 S WALLACE ST,ES,41.82999286,-87.64110258
POINT (-87.70630009266635 41.842267166062115),610063,MCCORMICK,2712 S SAWYER AVE,ES,41.84226717,-87.70630009
POINT (-87.60935721101174 41.77542384437959),610065,TILL,6543 S CHAMPLAIN AVE,ES,41.77542384,-87.60935721
POINT (-87.61921444365743 41.734549908376),610066,MCDADE,8801 S INDIANA AVE,ES,41.73454991,-87.61921444
POINT (-87.6917865020783 41.768142764638036),610067,MCKAY,6901 S FAIRFIELD AVE,ES,41.76814276,-87.6917865
POINT (-87.76151477060621 41.92395525810898),610068,HANSON PARK,5411 W FULLERTON AVE,ES,41.92395526,-87.76151477
POINT (-87.67628825214655 41.96784686777802),610070,MCPHERSON,4728 N WOLCOTT AVE,ES,41.96784687,-87.67628825
POINT (-87.6831845863575 41.892082166082574),610073,MITCHELL,2233 W OHIO ST,ES,41.89208217,-87.68318459
POINT (-87.71922375095443 41.92998860386076),610074,MONROE,3651 W SCHUBERT AVE,ES,41.9299886,-87.71922375
POINT (-87.69694138617116 41.91250548391014),610076,MOOS,1711 N CALIFORNIA AVE,ES,41.91250548,-87.69694139
POINT (-87.68854925524496 41.784313281565964),610077,MORRILL,6011 S ROCKWELL ST,ES,41.78431328,-87.68854926
POINT (-87.65157334214138 41.9490033009841),610078,INTER-AMERICAN,851 W WAVELAND AVE,ES,41.9490033,-87.65157334
POINT (-87.6413398057554 41.84440015891791),610081,SHERIDAN,533 W 27TH ST,ES,41.84440016,-87.64133981
POINT (-87.70580994472148 41.69573386233018),610082,MOUNT GREENWOOD,10841 S HOMAN AVE,ES,41.69573386,-87.70580994
POINT (-87.789630331566 41.970124883167344),610083,BEARD,6445 W STRONG ST,ES,41.97012488,-87.78963033
POINT (-87.69727833699838 41.69717033454182),610084,KELLER,3020 W 108TH ST,ES,41.69717033,-87.69727834
POINT (-87.64765248686278 41.70195211714933),610086,MOUNT VERNON,10540 S MORGAN ST,ES,41.70195212,-87.64765249
POINT (-87.7906044245619 41.77655627006337),610087,BLAIR,6751 W 63RD PL,ES,41.77655627,-87.79060442
POINT (-87.72188814466848 41.92090964989395),610088,MOZART,2200 N HAMLIN AVE,ES,41.92090965,-87.72188814
POINT (-87.71683185522133 41.950077753920596),610089,MURPHY,3539 W GRACE ST,ES,41.95007775,-87.71683186
POINT (-87.59334040532268 41.798535485157906),610090,MURRAY,5335 S KENWOOD AVE,ES,41.79853549,-87.59334041
POINT (-87.63895772518777 41.66487335006299),610091,BROWN R,12607 S UNION AVE,ES,41.66487335,-87.63895773
POINT (-87.74793587820315 41.89180975101735),610092,NASH,4837 W ERIE ST,ES,41.89180975,-87.74793588
POINT (-87.62093345510796 41.73840659515786),610093,NEIL,8555 S MICHIGAN AVE,ES,41.7384066,-87.62093346
POINT (-87.6445612223081 41.941636554888255),610094,NETTELHORST,3252 N BROADWAY ST,ES,41.94163655,-87.64456122
POINT (-87.64599025178916 41.913947217927735),610095,NEWBERRY,700 W WILLOW ST,ES,41.91394722,-87.64599025
POINT (-87.68913886416296 41.797714379405015),610096,NIGHTINGALE,5250 S ROCKWELL ST,ES,41.79771438,-87.68913886
POINT (-87.73142009080476 41.9195814529691),610097,NIXON,2121 N KEELER AVE,ES,41.91958145,-87.73142009
POINT (-87.72995463177072 41.90615515317017),610098,NOBEL,4127 W HIRSCH ST,ES,41.90615515,-87.72995463
POINT (-87.80297944028875 41.9881525067735),610099,NORWOOD PARK,5900 N NINA AVE,ES,41.98815251,-87.80297944
POINT (-87.73244309565025 41.906907205889276),610100,WEST PARK,1425 N TRIPP AVE,ES,41.90690721,-87.7324431
POINT (-87.64546949689037 41.75467006288496),610102,OGLESBY,7646 S GREEN ST,ES,41.75467006,-87.6454695
POINT (-87.57280595497336 41.768602312680876),610103,OKEEFFE,6940 S MERRILL AVE,ES,41.76860231,-87.57280595
POINT (-87.79310825534176 41.99379034980648),610104,ONAHAN,6634 W RAVEN ST,ES,41.99379035,-87.79310826
POINT (-87.58295438277366 41.7685551903038),610116,PARKSIDE,6938 S EAST END AVE,ES,41.76855519,-87.58295438
POINT (-87.73266645520341 41.786895377449056),610117,PASTEUR,5825 S KOSTNER AVE,ES,41.78689538,-87.73266646
POINT (-87.71921626106861 41.787898970714835),610120,PECK,3826 W 58TH ST,ES,41.78789897,-87.71921626
POINT (-87.68361565115083 41.871595492398946),610121,IRVING,749 S OAKLEY BLVD,ES,41.87159549,-87.68361565
POINT (-87.66585003699525 41.983455792336045),610122,PEIRCE,1423 W BRYN MAWR AVE,ES,41.98345579,-87.66585004
POINT (-87.72238554791981 41.85837242001234),610123,PENN,1616 S AVERS AVE,ES,41.85837242,-87.72238555
POINT (-87.59625661667707 41.728534142870835),610124,WASHINGTON H ES,9130 S UNIVERSITY AVE,ES,41.72853414,-87.59625662
POINT (-87.68074453481915 41.848100940025844),610125,RUIZ,2410 S LEAVITT ST,ES,41.84810094,-87.68074453
POINT (-87.61833765366819 41.83652695393685),610126,PERSHING,3200 S CALUMET AVE,ES,41.83652695,-87.61833765
POINT (-87.71258257766705 41.98155713878285),610127,PETERSON,5510 N CHRISTIANA AVE,ES,41.98155714,-87.71258258
POINT (-87.64757716519654 41.706602859847976),610128,GARVEY,10309 S MORGAN ST,ES,41.70660286,-87.64757717
POINT (-87.68329074267803 41.85290039518313),610129,PICKARD,2301 W 21ST PL,ES,41.8529004,-87.68329074
POINT (-87.60789113705158 41.7403402336656),610130,PIRIE,650 E 85TH ST,ES,41.74034023,-87.60789114
POINT (-87.6925257509659 41.86025889971301),610131,PLAMONDON,2642 W 15TH PL,ES,41.8602589,-87.69252575
POINT (-87.60641917339915 41.702630001600355),610132,POE,10538 S LANGLEY AVE,ES,41.70263,-87.60641917
POINT (-87.71879729303548 41.89323561092407),610133,WARD L,646 N LAWNDALE AVE,ES,41.89323561,-87.71879729
POINT (-87.76100700350283 41.95698763741477),610135,PORTAGE PARK,5330 W BERTEAU AVE,ES,41.95698764,-87.761007
POINT (-87.66952750426266 41.92884110079536),610136,PRESCOTT,1632 W WRIGHTWOOD AVE,ES,41.9288411,-87.6695275
POINT (-87.77241416628104 41.96561907168767),610137,PRUSSING,4650 N MENARD AVE,ES,41.96561907,-87.77241417
POINT (-87.6838014306395 41.9184862785674),610138,PULASKI,2230 W MCLEAN AVE,ES,41.91848628,-87.68380143
POINT (-87.60943096742838 41.68881935296992),610139,PULLMAN,11311 S FORRESTVILLE AVE,ES,41.68881935,-87.60943097
POINT (-87.67092241918907 41.96074569259484),610141,RAVENSWOOD,4332 N PAULINA ST,ES,41.96074569,-87.67092242
POINT (-87.59475207201355 41.79234788098066),610142,RAY,5631 S KIMBARK AVE,ES,41.79234788,-87.59475207
POINT (-87.60492543043772 41.804173791770864),610143,REAVIS,834 E 50TH ST,ES,41.80417379,-87.60492543
POINT (-87.71954054421468 41.94109399066818),610144,REILLY,3650 W SCHOOL ST,ES,41.94109399,-87.71954054
POINT (-87.76898261875851 41.943018896022565),610145,REINBERG,3425 N MAJOR AVE,ES,41.9430189,-87.76898262
POINT (-87.60017682327386 41.76419586510751),610146,REVERE,1010 E 72ND ST,ES,41.76419587,-87.60017682
POINT (-87.69718539374 42.015265046408814),610147,ROGERS,7345 N WASHTENAW AVE,ES,42.01526505,-87.69718539
POINT (-87.66603693424403 41.80714283144807),610148,CHAVEZ,4747 S MARSHFIELD AVE,ES,41.80714283,-87.66603693
POINT (-87.61806644738223 41.751945576044086),610152,RUGGLES,7831 S PRAIRIE AVE,ES,41.75194558,-87.61806645
POINT (-87.63884270034038 41.7353793901619),610153,RYDER,8716 S WALLACE ST,ES,41.73537939,-87.6388427
POINT (-87.74595144443234 41.991169246501556),610155,SAUGANASH,6040 N KILPATRICK AVE,ES,41.99116925,-87.74595144
POINT (-87.70500578053786 41.79749820313011),610157,SAWYER,5248 S SAWYER AVE,ES,41.7974982,-87.70500578
POINT (-87.79872070511091 41.91415063009354),610158,SAYRE,1850 N NEWLAND AVE,ES,41.91415063,-87.79872071
POINT (-87.73217877767878 41.94167760398274),610159,SCAMMON,4201 W HENDERSON ST,ES,41.9416776,-87.73217878
POINT (-87.8141946545342 42.01689164143365),610163,STOCK,7507 W BIRCHWOOD AVE,ES,42.01689164,-87.81419465
POINT (-87.76119046881551 41.93040331629132),610165,SCHUBERT,2727 N LONG AVE,ES,41.93040332,-87.76119047
POINT (-87.66877201151634 41.810333240928585),610167,SEWARD,4600 S HERMITAGE AVE,ES,41.81033324,-87.66877201
POINT (-87.70419859112472 41.811068610044856),610170,COLUMBIA EXPLORERS,4520 S KEDZIE AVE,ES,41.81106861,-87.70419859
POINT (-87.5527879443839 41.73171691657682),610171,MIRELES,9000 S EXCHANGE AVE,ES,41.73171692,-87.55278794
POINT (-87.6502214456532 41.799766206136326),610172,SHERMAN,1000 W 52ND ST,ES,41.79976621,-87.65022145
POINT (-87.63227938229053 41.790800244125016),610173,SHERWOOD,245 W 57TH ST,ES,41.79080024,-87.63227938
POINT (-87.68964723523976 41.815909486699944),610174,SHIELDS,4250 S ROCKWELL ST,ES,41.81590949,-87.68964724
POINT (-87.59390494159986 41.80429401663335),610175,SHOESMITH,1330 E 50TH ST,ES,41.80429402,-87.59390494
POINT (-87.65866905202178 41.690918877055836),610176,SHOOP,11140 S BISHOP ST,ES,41.69091888,-87.65866905
POINT (-87.65941897615701 41.87910254299313),610177,SKINNER,1260 W ADAMS ST,ES,41.87910254,-87.65941898
POINT (-87.59693188177567 41.716988872452085),610178,SCHMID,9755 S GREENWOOD AVE,ES,41.71698887,-87.59693188
POINT (-87.781974537526 41.95886803640263),610179,SMYSER,4310 N MELVINA AVE,ES,41.95886804,-87.78197454
POINT (-87.65344502667783 41.86535101892525),610180,SMYTH,1059 W 13TH ST,ES,41.86535102,-87.65344503
POINT (-87.72404263305404 41.99394233325475),610182,SOLOMON,6206 N HAMLIN AVE,ES,41.99394233,-87.72404263
POINT (-87.75044473104985 41.88487639849927),610183,SPENCER,214 N LAVERGNE AVE,ES,41.8848764,-87.75044473
POINT (-87.7316656849208 41.747106879386706),610185,STEVENSON,8010 S KOSTNER AVE,ES,41.74710688,-87.73166568
POINT (-87.63997360421976 41.696496163708645),610188,DUNNE,10845 S UNION AVE,ES,41.69649616,-87.6399736
POINT (-87.68479278593354 41.995359051783836),610191,STONE,6239 N LEAVITT ST,ES,41.99535905,-87.68479279
POINT (-87.7133175007 41.91193807974274),610192,STOWE,3444 W WABANSIA AVE,ES,41.91193808,-87.7133175
POINT (-87.54292760840417 41.74382852481611),610193,NEW SULLIVAN,8331 S MACKINAW AVE,ES,41.74382852,-87.54292761
POINT (-87.73352395107553 41.87082837933887),610194,SUMNER,4320 W 5TH AVE,ES,41.87082838,-87.73352395
POINT (-87.67682117256555 41.71144507127312),610195,SUTHERLAND,10015 S LEAVITT ST,ES,41.71144507,-87.67682117
POINT (-87.6582960802554 41.989139061005545),610196,SWIFT,5900 N WINTHROP AVE,ES,41.98913906,-87.65829608
POINT (-87.67372272471339 41.89240461212863),610197,TALCOTT,1840 W OHIO ST,ES,41.89240461,-87.67372272
POINT (-87.71098733184654 41.792346084625386),610226,SANDOVAL,5534 S SAINT LOUIS AVE,ES,41.79234608,-87.71098733
POINT (-87.72554564271758 41.84008042725388),610227,WHITNEY,2815 S KOMENSKY AVE,ES,41.84008043,-87.72554564
POINT (-87.67339165432209 41.85048088695771),610228,WHITTIER,1900 W 23RD ST,ES,41.85048089,-87.67339165
POINT (-87.67776098071515 41.90705300512011),610229,PRITZKER,2009 W SCHILLER ST,ES,41.90705301,-87.67776098
POINT (-87.7783448615314 42.00749067018465),610230,WILDWOOD,6950 N HIAWATHA AVE,ES,42.00749067,-87.77834486
POINT (-87.62930832982718 41.85279977034253),610231,NATIONAL TEACHERS,55 W CERMAK RD,ES,41.85279977,-87.62930833
POINT (-87.76993751641058 41.95759898855195),610390,RICKOVER MILITARY HS,5700 W BERTEAU AVE,HS,41.95759899,-87.76993752
POINT (-87.67166184963611 41.78204080365819),610391,LINDBLOM HS,6130 S WOLCOTT AVE,HS,41.7820408,-87.67166185
POINT (-87.73529221730037 41.834396617226666),610392,WORLD LANGUAGE HS,3120 S KOSTNER AVE,HS,41.83439662,-87.73529222
POINT (-87.65247334562707 41.965547461658346),610394,UPLIFT HS,900 W WILSON AVE,HS,41.96554746,-87.65247335
POINT (-87.70644464861834 41.7644070759543),610396,TARKINGTON,3330 W 71ST ST,ES,41.76440708,-87.70644465
POINT (-87.67632646860778 41.96881957627909),610402,DEVRY HS,1900 W LAWRENCE AVE,HS,41.96881958,-87.67632647
POINT (-87.67763611228631 41.88321451740482),610405,SUDER,2022 W WASHINGTON BLVD,ES,41.88321452,-87.67763611
POINT (-87.53297076749368 41.715470376128955),610198,TAYLOR,9912 S AVENUE H,ES,41.71547038,-87.53297077
POINT (-87.65811083885107 41.67750544720438),610199,COLEMON,1441 W 119TH ST,ES,41.67750545,-87.65811084
POINT (-87.5442799762555 41.73332423852838),610200,THORP J,8914 S BUFFALO AVE,ES,41.73332424,-87.54427998
POINT (-87.77763129473911 41.9485713122897),610201,THORP O,6024 W WARWICK AVE,ES,41.94857131,-87.77763129
POINT (-87.73056638464364 41.88410224207661),610202,TILTON,223 N KEELER AVE,ES,41.88410224,-87.73056638
POINT (-87.70817918402528 41.78752323005499),610203,MONARCAS ACADEMY,5815 S HOMAN AVE,ES,41.78752323,-87.70817918
POINT (-87.75892840072243 41.79904639800659),610206,TWAIN,5134 S LOTUS AVE,ES,41.7990464,-87.7589284
POINT (-87.66555862133826 41.72081703449792),610207,VANDERPOEL,9510 S PROSPECT AVE,ES,41.72081703,-87.66555862
POINT (-87.62714768792195 41.696262347939246),610208,LAVIZZO,138 W 109TH ST,ES,41.69626235,-87.62714769
POINT (-87.7246052240886 41.97163400199613),610209,VOLTA,4950 N AVERS AVE,ES,41.971634,-87.72460522
POINT (-87.71060878865043 41.97150444375719),610212,ALBANY PARK,4929 N SAWYER AVE,ES,41.97150444,-87.71060879
POINT (-87.60101811277588 41.77347789828035),610213,WADSWORTH,6650 S ELLIS AVE,ES,41.7734779,-87.60101811
POINT (-87.70506426006511 41.84095691155026),610215,MADERO,3202 W 28TH ST,ES,41.84095691,-87.70506426
POINT (-87.64808617419777 41.85483574754132),610216,WALSH,2015 S PEORIA ST,ES,41.85483575,-87.64808617
POINT (-87.63535578864118 41.84398008990415),610217,WARD J,2701 S SHIELDS AVE,ES,41.84398009,-87.63535579
POINT (-87.57535254879298 41.72676290909562),610218,WARREN,9239 S JEFFERY AVE,ES,41.72676291,-87.57535255
POINT (-87.5360152991867 41.68813148416714),610219,WASHINGTON G ES,3611 E 114TH ST,ES,41.68813148,-87.5360153
POINT (-87.69133251141675 41.96436540416632),610220,WATERS,4540 N CAMPBELL AVE,ES,41.9643654,-87.69133251
POINT (-87.72752437440191 41.86991585857832),610221,WEBSTER,4055 W ARTHINGTON ST,ES,41.86991586,-87.72752437
POINT (-87.65820483630583 41.76507589651177),610223,WENTWORTH,1340 W 71ST ST,ES,41.7650759,-87.65820484
POINT (-87.65538382113645 41.68390701046635),610225,WHISTLER,11533 S ADA ST,ES,41.68390701,-87.65538382
POINT (-87.70028031259812 41.91503854790846),610234,YATES,1839 N RICHMOND ST,ES,41.91503855,-87.70028031
POINT (-87.76714284601212 41.906790574638),610235,YOUNG ES,1434 N PARKSIDE AVE,ES,41.90679057,-87.76714285
POINT (-87.62713680544569 41.80913475766936),610237,BEETHOVEN,25 W 47TH ST,ES,41.80913476,-87.62713681
POINT (-87.65301778634648 41.76536056649469),610238,BOND,7050 S MAY ST,ES,41.76536057,-87.65301779
POINT (-87.67220640215808 41.80234286832012),610239,DALEY,5024 S WOLCOTT AVE,ES,41.80234287,-87.6722064
POINT (-87.64974916516262 41.95998415548501),610242,BRENNEMANN,4251 N CLARENDON AVE,ES,41.95998416,-87.64974917
POINT (-87.7533248713347 41.872885005783324),610244,CLARK HS,5101 W HARRISON ST,HS,41.87288501,-87.75332487
POINT (-87.767668455553 41.89036862981803),610245,DOUGLASS HS,543 N WALLER AVE,HS,41.89036863,-87.76766846
POINT (-87.62569157850251 41.79846496007581),610246,BEASLEY,5255 S STATE ST,ES,41.79846496,-87.62569158
POINT (-87.77818680274707 41.943055920148915),610248,CHICAGO ACADEMY ES,3400 N AUSTIN AVE,ES,41.94305592,-87.7781868
POINT (-87.6902608387575 41.79404805137659),610249,TALMAN,5450 S TALMAN AVE,ES,41.79404805,-87.69026084
POINT (-87.6336324338283 41.90141653447084),610250,SALAZAR,160 W WENDELL ST,ES,41.90141653,-87.63363243
POINT (-87.69918700902612 41.882949924626274),610251,CATHER,2908 W WASHINGTON BLVD,ES,41.88294992,-87.69918701
POINT (-87.68031496656164 41.879869820876024),610252,DETT,2131 W MONROE ST,ES,41.87986982,-87.68031497
POINT (-87.71574357178709 41.85888344695107),610254,DVORAK,3615 W 16TH ST,ES,41.85888345,-87.71574357
POINT (-87.59906677097464 41.81734932754074),610256,ROBINSON,4225 S LAKE PARK AVE,ES,41.81734933,-87.59906677
POINT (-87.70510783048364 41.889178135309955),610257,MORTON,431 N TROY ST,ES,41.88917814,-87.70510783
POINT (-87.61721417905207 41.77990049438019),610263,DULLES,6311 S CALUMET AVE,ES,41.77990049,-87.61721418
POINT (-87.60117440803558 41.740183791046064),610268,ASHE,8505 S INGLESIDE AVE,ES,41.74018379,-87.60117441
POINT (-87.65475844785418 41.97094908292975),610269,MCCUTCHEON,4865 N SHERIDAN RD,ES,41.97094908,-87.65475845
POINT (-87.70224105256047 41.87381494752166),610271,JENSEN,3030 W HARRISON ST,ES,41.87381495,-87.70224105
POINT (-87.70313876271736 41.86183619185722),610274,JOHNSON,1420 S ALBANY AVE,ES,41.86183619,-87.70313876
POINT (-87.61661794406346 41.81435828347831),610276,MOLLISON,4415 S DR MARTIN L KING JR DR,ES,41.81435828,-87.61661794
POINT (-87.60679103518804 41.76067263581973),610279,TANNER,7350 S EVANS AVE,ES,41.76067264,-87.60679104
POINT (-87.55678924877475 41.76033180038773),610281,POWELL,7511 S SOUTH SHORE DR,ES,41.7603318,-87.55678925
POINT (-87.746730779136 41.897819069911975),610282,MCNAIR,4820 W WALTON ST,ES,41.89781907,-87.74673078
POINT (-87.67316832856285 42.00770257088449),610284,NEW FIELD,1707 W MORSE AVE,ES,42.00770257,-87.67316833
POINT (-87.70960968204176 41.74235056706974),610287,ASHBURN,8300 S ST LOUIS AVE,ES,41.74235057,-87.70960968
POINT (-87.63727734721513 41.77272749766614),610290,MAYS,6656 S NORMAL BLVD,ES,41.7727275,-87.63727735
POINT (-87.72888429293116 41.775305387405496),610291,LEE,6448 S TRIPP AVE,ES,41.77530539,-87.72888429
POINT (-87.72466123134845 41.878798932743464),610293,MELODY,3937 W WILCOX ST,ES,41.87879893,-87.72466123
POINT (-87.64699403793742 41.68103137030722),610295,HIGGINS,11710 S MORGAN ST,ES,41.68103137,-87.64699404
POINT (-87.62804036316221 41.74718591826371),610298,LENART,8101 S LASALLE ST,ES,41.74718592,-87.62804036
POINT (-87.64133454073047 41.76533498003582),610299,KING ES,644 W 71ST ST,ES,41.76533498,-87.64133454
POINT (-87.63475051652755 41.74886822530267),610300,WESTCOTT,409 W 80TH ST,ES,41.74886823,-87.63475052
POINT (-87.6869602181822 41.87911823188518),610304,PHOENIX MILITARY HS,145 S CAMPBELL AVE,HS,41.87911823,-87.68696022
POINT (-87.74927555445291 41.873586780996895),610305,LELAND,512 S LAVERGNE AVE,ES,41.87358678,-87.74927555
POINT (-87.66809130690702 41.88390675595145),610308,RUDOLPH,1628 W WASHINGTON BLVD,ES,41.88390676,-87.66809131
POINT (-87.5895894984688 41.7331323135111),610312,MCDOWELL,1419 E 89TH ST,ES,41.73313231,-87.5895895
POINT (-87.68575620384055 41.90529385397866),610313,DE DIEGO,1313 N CLAREMONT AVE,ES,41.90529385,-87.6857562
POINT (-87.65053854187902 41.67230940678217),610315,WHITE,1136 W 122ND ST,ES,41.67230941,-87.65053854
POINT (-87.58218173784371 41.72610745557842),610316,EARHART,1710 E 93RD ST,ES,41.72610746,-87.58218174
POINT (-87.69207693006288 41.82390000056607),610317,BRIGHTON PARK,3825 S WASHTENAW AVE,ES,41.8239,-87.69207693
POINT (-87.66781651174634 41.829355619514004),610319,EVERGREEN,3537 S PAULINA ST,ES,41.82935562,-87.66781651
POINT (-87.55755003384354 41.73462672050479),610323,BOWEN HS,2710 E 89TH ST,HS,41.73462672,-87.55755003
POINT (-87.70804087648976 41.93397019627216),610325,AVONDALE-LOGANDALE,3212 W GEORGE ST,ES,41.9339702,-87.70804088
POINT (-87.67521045891118 41.857754809860126),610329,OROZCO,1940 W 18TH ST,ES,41.85775481,-87.67521046
POINT (-87.71542311990277 41.88621006017784),610334,RABY HS,3545 W FULTON BLVD,HS,41.88621006,-87.71542312
POINT (-87.64921669361141 41.758924732514046),610339,STAGG,7424 S MORGAN ST,ES,41.75892473,-87.64921669
POINT (-87.77684656597599 41.94305449108653),610340,CHICAGO ACADEMY HS,3400 N AUSTIN AVE,HS,41.94305449,-87.77684657
POINT (-87.68304994191038 41.90681580989406),610342,SABIN,2216 W HIRSCH ST,ES,41.90681581,-87.68304994
POINT (-87.60841876846958 41.81449879579565),610345,WOODSON,4414 S EVANS AVE,ES,41.8144988,-87.60841877
POINT (-87.68106119769811 41.77751050807112),610347,CLAREMONT,2300 W 64TH ST,ES,41.77751051,-87.6810612
POINT (-87.57664295114287 41.729692361601636),610350,BLACK,9101 S EUCLID AVE,ES,41.72969236,-87.57664295
POINT (-87.72995529239974 41.738843941359164),610352,DURKIN PARK,8445 S KOLIN AVE,ES,41.73884394,-87.72995529
POINT (-87.71165364056986 41.824377328019),610353,CALMECA,3456 W 38TH ST,ES,41.82437733,-87.71165364
POINT (-87.72122011376543 41.96640281721511),610354,NORTH RIVER,3729 W LELAND AVE,ES,41.96641068,-87.7212259
POINT (-87.66385296310304 41.96230777254777),610355,COURTENAY,4420 N BEACON ST,ES,41.96230777,-87.66385296
POINT (-87.69894610650117 41.84776169494352),610357,SPRY HS,2400 S MARSHALL BLVD,HS,41.84776169,-87.69894611
POINT (-87.63930546894743 41.71566535832873),610362,EVERS,9811 S LOWE AVE,ES,41.71566536,-87.63930547
POINT (-87.64608274403547 41.95681613105158),610363,DISNEY,4140 N MARINE DR,ES,41.95681613,-87.64608274
POINT (-87.61432001021039 41.65373298145931),610364,DUBOIS,330 E 133RD ST,ES,41.65373298,-87.61432001
POINT (-87.64804432347503 41.71619329639532),610366,WACKER,9746 S MORGAN ST,ES,41.7161933,-87.64804432
POINT (-87.76629755454924 41.87797883365318),610367,DEPRIEST,139 S PARKSIDE AVE,ES,41.87797883,-87.76629755
POINT (-87.62986865963936 41.70534232193567),610368,HUGHES L,240 W 104TH ST,ES,41.70534232,-87.62986866
POINT (-87.64676673439082 41.734125472926166),610369,JACKSON M,917 W 88TH ST,ES,41.73412547,-87.64676673
POINT (-87.6250299795557 41.806117597611866),610380,WILLIAMS HS,4934 S WABASH AVE,HS,41.8061176,-87.62502998
POINT (-87.62500446841625 41.805204171162224),610381,BRONZEVILLE HS,4934 S WABASH AVE,HS,41.80520417,-87.62500447
POINT (-87.73529946931335 41.833507275211815),610383,SOCIAL JUSTICE HS,3120 S KOSTNER AVE,HS,41.83350728,-87.73529947
POINT (-87.73527796160715 41.836168818721944),610384,INFINITY HS,3120 S KOSTNER AVE,HS,41.83616882,-87.73527796
POINT (-87.73528329703336 41.835281873635715),610385,MULTICULTURAL ARTS HS,3120 S KOSTNER AVE,HS,41.83528187,-87.7352833
POINT (-87.66737776498859 41.80351471627545),610386,PEACE AND EDUCATION HS,4946 S PAULINA ST,HS,41.80351472,-87.66737776
POINT (-87.72665959049033 41.894546719591844),610389,ORR HS,730 N PULASKI RD,HS,41.89454672,-87.72665959
POINT (-87.70204158577974 41.86414856767911),610499,COLLINS HS,1313 S SACRAMENTO DR,HS,41.86414857,-87.70204159
POINT (-87.72724437840999 41.86697962767595),610503,FRAZIER PROSPECTIVE,4027 W GRENSHAW ST,ES,41.86697963,-87.72724438
POINT (-87.67754185003605 41.82777491358657),610504,THOMAS,3625 S HOYNE AVE,ES,41.82777491,-87.67754185
POINT (-87.63275698311767 41.828145322855995),610513,AIR FORCE HS,3630 S WELLS ST,HS,41.82814532,-87.63275698
POINT (-87.7619163727251 41.885993287297524),610518,AUSTIN CCA HS,231 N PINE AVE,HS,41.88599329,-87.76191637
POINT (-87.6736960317108 41.90291445732691),610520,LASALLE II,1148 N HONORE ST,ES,41.90291446,-87.67369603
POINT (-87.66652988324917 41.77122111202408),610521,DAVIS M,6740 S PAULINA ST,ES,41.77122111,-87.66652988
POINT (-87.81377123402879 41.99423795046377),610523,EDISON PARK,6220 N OLCOTT AVE,ES,41.99423795,-87.81377123
POINT (-87.68056201257477 41.9357945564172),610524,ALCOTT HS,2957 N HOYNE AVE,HS,41.93579456,-87.68056201
POINT (-87.65940468444681 41.89354763866972),610529,OGDEN HS,1250 W ERIE ST,HS,41.89354764,-87.65940468
POINT (-87.5903961020516 41.76775510951827),610530,SOUTH SHORE ES,1415 E 70TH ST,ES,41.76775511,-87.5903961
POINT (-87.71136992132551 41.79347933005115),610532,HERNANDEZ,3510 W 55TH ST,ES,41.79347933,-87.71136992
POINT (-87.76578057130261 41.92131758250355),610533,PRIETO,2231 N CENTRAL AVE,ES,41.92131758,-87.76578057
POINT (-87.64484149476907 41.905109119688056),610534,SKINNER NORTH,640 W SCOTT ST,ES,41.90510912,-87.64484149
POINT (-87.77012725796686 41.93493062291068),610539,CAMRAS,3000 N MANGO AVE,ES,41.93493062,-87.77012726
POINT (-87.72478312355042 41.940025914057415),610541,LORCA,3231 N SPRINGFIELD AVE,ES,41.94002591,-87.72478312
POINT (-87.7059172053333 42.0029589949908),610542,WEST RIDGE,6700 N WHIPPLE ST,ES,42.00295899,-87.70591721
POINT (-87.71105882217724 41.79520055536992),610543,SOLORIO HS,5400 S ST LOUIS AVE,HS,41.79520056,-87.71105882
POINT (-87.73992023377784 41.7710790727289),610544,AZUELA,4707 W MARQUETTE RD,ES,41.77107907,-87.73992023
POINT (-87.57635263778296 41.758791663353236),610547,SOUTH SHORE INTL HS,1955 E 75TH ST,HS,41.75879166,-87.57635264
POINT (-87.66496913282971 41.86857587939848),610548,STEM,1522 W FILLMORE ST,ES,41.86857588,-87.66496913
POINT (-87.70406006782761 41.73523902268798),610557,PATHWAYS - ASHBURN HS,3284 W 87TH ST,HS,41.73523902,-87.70406007
POINT (-87.70734534805283 41.75374980253448),610558,GOODE HS,7651 S HOMAN AVE,HS,41.7537498,-87.70734535
POINT (-87.68977977274324 41.806491411659294),610559,SHIELDS MIDDLE,2611 W 48TH ST,ES,41.80649141,-87.68977977
POINT (-87.68330134658407 41.876947443984804),610561,CRANE MEDICAL HS,2245 W JACKSON BLVD,HS,41.87694744,-87.68330135
POINT (-87.67754136786809 41.808412543388556),610563,BACK OF THE YARDS HS,2111 W 47TH ST,HS,41.80841254,-87.67754137
POINT (-87.72136351132592 41.95248767022419),610564,DISNEY II HS,3900 N LAWNDALE AVE,HS,41.95248767,-87.72136351
POINT (-87.6491243469498 41.763895974094545),610565,EXCEL ENGLEWOOD HS,7141 S MORGAN ST,HS,41.76389597,-87.64912435
POINT (-87.70520632189682 41.93943320993643),610568,PATHWAYS - AVONDALE HS,3100 W BELMONT AVE,HS,41.93943321,-87.70520632
POINT (-87.80668177210931 42.017171239790784),610569,OMBUDSMAN - NORTHWEST HS,7500 N HARLEM AVE,HS,42.01717124,-87.80668177
POINT (-87.68363453081963 41.78302658139593),610570,OMBUDSMAN - SOUTH HS,6057 S. WESTERN AVE,HS,41.78302658,-87.68363453
POINT (-87.68784229508243 41.87467299509836),610571,OMBUDSMAN - WEST HS,2401 W. CONGRESS PKWY,HS,41.874673,-87.6878423
POINT (-87.55990690211829 41.74267138259479),400168,GREAT LAKES,8401 S SAGINAW AVE,ES,41.74267138,-87.5599069
POINT (-87.64641313678543 41.929849852811664),609774,ALCOTT ES,2625 N ORCHARD ST,ES,41.92984985,-87.64641314
POINT (-87.70018447218844 41.847746722754486),610184,SPRY ES,2400 S MARSHALL BLVD,ES,41.84774672,-87.70018447
POINT (-87.62929656938479 41.89997648989907),610101,OGDEN ES,24 W WALTON ST,ES,41.89997649,-87.62929657
POINT (-87.73067837613652 41.950460506243246),610515,DISNEY II ES,3815 N KEDVALE AVE,ES,41.95046051,-87.73067838
POINT (-87.55180355199907 41.75311490172341),610573,SAFE ACHIEVE HS,7530 S SOUTH SHORE DR,HS,41.7531149,-87.55180355
POINT (-87.71820414376171 41.93572646709712),400172,ASPIRA - BUSINESS & FINANCE HS,2989 N. MILWAUKEE AVE,HS,41.93572647,-87.71820414
POINT (-87.75542435392022 41.88826258108961),400178,MOVING EVEREST,416 N. LARAMIE AVE,ES,41.88826258,-87.75542435
POINT (-87.52798507715971 41.70485859136751),610586,SADLOWSKI,3930 E 105TH ST,ES,41.70485859,-87.52798508
POINT (-87.69705747862056 41.80798719304654),400179,NOBLE - MANSUETO HS,2911 W 47TH ST,HS,41.80798719,-87.69705748
POINT (-87.72661479995709 41.89380503757326),400180,KIPP - ONE,730 N PULASKI RD,ES,41.89380504,-87.7266148
POINT (-87.61223910523847 41.8012041667448),610587,DYETT ARTS HS,555 E 51ST ST,HS,41.80120417,-87.61223911
POINT (-87.72542159518997 41.78382632211399),610588,RICHARDSON,6018 S KARLOV AVE,ES,41.78382632,-87.7254216
POINT (-87.72447046436717 41.79146390934874),610589,SOR JUANA,4034 W 56TH ST,ES,41.791464,-87.72447
POINT (-87.62662117925584 41.81924917367804),610590,BRONZEVILLE CLASSICAL,8 W ROOT ST,ES,41.81924917,-87.62662118
POINT (-87.58332767616831 41.76003434014582),400181,ART IN MOTION,7415 S EAST END AVE,HS,41.76003434,-87.58332768
POINT (-87.63685077269172 41.77024998311005),610592,ENGLEWOOD STEM HS,6835 S NORMAL BLVD,HS,41.77024998,-87.63685077
POINT (-87.6428161488468 41.69510526428938),610593,OMBUDSMAN - ROSELAND HS,10928 S HALSTED ST,HS,41.69510526,-87.64281615
POINT (-87.68794642783524 41.90284075724418),610594,PATHWAYS - HUMBOLDT PARK HS,2421 W DIVISION ST,HS,41.90284076,-87.68794643
POINT (-87.55051275981418 41.75311714180804),610572,SAFE ACHIEVE ES,7530 S SOUTH SHORE DR,ES,41.75311714,-87.55051276
POINT (-87.65698551194797 41.931363743010365),610595,FISHER,1840 N. CLARK ST,ES,41.91600801,-87.6346366
POINT (-87.75778527867739 41.9619754174623),610599,CATALPA,4434 N LARAMIE AVE,ES,41.96198328,-87.75779107
POINT (-87.65993995514543 41.86344390858629),610597,VIRTUAL ACADEMY HS,1326 W 14TH ST,HS,41.86345176,-87.65994571
POINT (-87.65950073094785 41.86344657780715),610596,VIRTUAL ACADEMY ES,1326 W 14TH ST,ES,41.86345443,-87.65950649
POINT (-87.69306523454132 41.77024159739189),400182,CATALYST - MARIA HS,6727 S CALIFORNIA AVE,HS,41.77024943,-87.69307099
POINT (-87.61362864697796 41.831117531650264),400105,URBAN PREP - BRONZEVILLE HS,521 E 35TH ST,HS,41.83111753,-87.61362865
POINT (-87.63435669191705 41.78149781662923),400086,URBAN PREP - ENGLEWOOD HS,6201 S STEWART AVE,HS,41.78149782,-87.63435669
POINT (-87.67092712871724 41.75419385057818),609790,BARTON,7650 S WOLCOTT AVE,ES,41.754194,-87.670927
