school_id,dept_id,short_name,address,grade_cat,lat,long,ctu_name,scs
400013,66254,ASPIRA - EARLY COLLEGE HS,3986 W BARRY AVE,HS,41.937298,-87.727096,Early College Charter High School,0
400017,66351,ASPIRA - HAUGAN,3729 W LELAND AVE,ES,41.966406,-87.722399,Haugan Charter Middle School,0
400022,63051,CHIARTS HS,2714 W AUGUSTA BLVD,HS,41.899377,-87.694945,Chicago High School for the Arts,0
400031,66381,CICS - WRIGHTWOOD,8130 S CALIFORNIA AVE,ES,41.745365,-87.692614,Wrightwood Charter Elem School,0
400032,66072,CICS - ELLISON HS,1817 W 80TH ST,HS,41.748382,-87.66898,Ellison Charter High School,0
400034,66241,CICS - NORTHTOWN HS,3900 W PETERSON AVE,HS,41.990245,-87.726504,Northtown Charter High School,0
400050,66271,NAMASTE,3737 S PAULINA ST,ES,41.8257,-87.667724,Namaste Charter School,0
400060,66191,AHS - PASSAGES,1643 W BRYN MAWR AVE,ES,41.983371,-87.67116,Passages Charter School,0
400079,66395,ACERO - ZIZUMBO,4248 W 47TH ST,ES,41.810135,-87.730495,Zizumbo Charter Elem School,0
400080,66396,ACERO - TORRES,4248 W 47TH ST,ES,41.8082,-87.73045,Torres Charter Elem School,0
400081,66392,ACERO - DE LAS CASAS,1641 W 16TH ST,ES,41.859504,-87.667949,Casas Charter Elem School,0
400082,66393,ACERO - FUENTES,2845 W BARRY AVE,ES,41.937476,-87.699594,Fuentes Charter Elem School,0
400083,66131,ACERO - PAZ,2651 W 23RD ST,ES,41.850035,-87.692551,Paz Charter Campus,0
400084,66391,ACERO - TAMAYO,5135 S CALIFORNIA AVE,ES,41.79993,-87.693862,Tamayo Charter Elem School,0
400085,66394,ACERO - GARCIA HS,4248 W 47TH ST,HS,41.809171,-87.730467,Garcia Charter High School,0
400089,66397,ACERO - MARQUEZ,2916 W 47TH ST,ES,41.808309,-87.697394,Marquez Charter Elem School,0
400094,63081,EPIC HS,8255 S HOUSTON AVE,HS,41.744849,-87.550222,Epic Academy Charter High School,0
400101,66398,ACERO - CISNEROS,2744 W PERSHING RD,ES,41.822884,-87.693996,Cisneros Charter Elem School,0
400104,63131,INSTITUTO - HEALTH,2520 S WESTERN AVE,HS,41.845967,-87.68724,Instituto Health Science Career Academy-Charter,0
400112,66399,ACERO - IDAR,5050 S HOMAN AVE,ES,41.801042,-87.708797,Idar Charter Elem School,0
400114,66601,ACERO - SANTIAGO,2510 W CORTEZ ST,ES,41.900344,-87.689896,Santiago Charter Elem School,0
400120,66133,ACERO - CLEMENTE,2050 N NATCHEZ AVE,ES,41.917952,-87.78783,Clemente Charter Elem School,0
400121,66134,ACERO - DE LA CRUZ,7416 N RIDGE BLVD,ES,42.016476,-87.684406,Cruz Charter Elem & HS,0
400125,66108,YCCS - ASPIRA PANTOJA,3121 N PULASKI RD,HS,41.938187,-87.727137,Pantoja Charter High School,0
400126,66109,YCCS - ASSOCIATION HOUSE,1116 N KEDZIE AVE,HS,41.901572,-87.70686,Association House Charter High School,0
400135,66619,YCCS - LATINO YOUTH,2001 S CALIFORNIA AVE,HS,41.854665,-87.69543,Latino Youth Charter High School,0
400145,66629,YCCS - YOUTH CONNECTION,1814 S UNION AVE,HS,41.857208,-87.644888,Youth Connection Leadership Acad. Charter,0
400164,66921,INSTITUTO - JUSTICE HS,2570 S BLUE ISLAND AVE,HS,41.845446,-87.684065,Instituto Justice Leadership Acad. Charter,0
400149,66137,ACERO - SOTO HS,5025 S SAINT LOUIS AVE,HS,41.801762,-87.711025,Soto Charter High School,0
400153,66602,ACERO - BRIGHTON PARK,4420 S FAIRFIELD AVE,ES,41.813109,-87.693238,Brighton Park Charter Elem School,0
400159,66661,CHRISTOPHER HOUSE,5235 W BELDEN AVE,ES,41.922181,-87.757522,Christopher House Charter Elem School,0
609674,53011,CHICAGO VOCATIONAL HS,2100 E 87TH ST,HS,41.737174,-87.573268,Chicago Voc Career Academy,0
609676,53021,DUNBAR HS,3000 S KING DR,HS,41.840226,-87.617637,Dunbar Voc. High School,0
609678,47021,JONES HS,700 S STATE ST,HS,41.873066,-87.627675,Jones College Prep High School,0
609679,53041,PROSSER HS,2148 N LONG AVE,HS,41.920059,-87.761048,Prosser Voc High School,0
609680,70020,PAYTON HS,1034 N WELLS ST,HS,41.901575,-87.635385,Payton College Prep.,0
609682,53051,RICHARDS HS,5009 S LAFLIN ST,HS,41.802881,-87.662278,Richards Academy,1
609691,46431,NORTH-GRAND HS,4338 W WABANSIA AVE,HS,41.911674,-87.735238,North-Grand H.S.,0
609692,53061,SIMEON HS,8147 S VINCENNES AVE,HS,41.745781,-87.63541,Simeon Vocational High School,0
609693,53071,WESTINGHOUSE HS,3223 W FRANKLIN BLVD,HS,41.889977,-87.707332,Westinghouse College Prep.,0
609694,46021,HANCOCK HS,5437 W 64TH PL,HS,41.775366,-87.758238,Hancock High School,0
609695,46031,AMUNDSEN HS,5110 N DAMEN AVE,HS,41.975067,-87.679484,Amundsen High School,0
609698,46041,BOGAN HS,3939 W 79TH ST,HS,41.749376,-87.721097,Bogan High School,0
609704,53091,FARRAGUT HS,2345 S CHRISTIANA AVE,HS,41.84856,-87.708706,Farragut Car Acad High School,1
609705,46111,FENGER HS,11220 S WALLACE ST,HS,41.689951,-87.637572,Fenger High School,1
609708,46131,FOREMAN HS,3235 N LECLAIRE AVE,HS,41.939797,-87.754167,Foreman High School,0
609709,46141,GAGE PARK HS,5630 S ROCKWELL ST,HS,41.791013,-87.688954,Gage Park High School,0
609710,51021,HARLAN HS,9652 S MICHIGAN AVE,HS,41.718372,-87.620623,Harlan Comm Acad High School,0
609712,47031,HIRSCH HS,7740 S INGLESIDE AVE,HS,41.753748,-87.601727,Hirsch Metro H.S. of Communica,0
609713,46171,HYDE PARK HS,6220 S STONY ISLAND AVE,HS,41.782257,-87.586615,Hyde Park Academy H.S.,0
609715,46181,KELLY HS,4136 S CALIFORNIA AVE,HS,41.818729,-87.694639,Kelly College Prep,1
609716,46191,KELVYN PARK HS,4343 W WRIGHTWOOD AVE,HS,41.927918,-87.735999,Kelvyn Park High School,0
609718,46201,KENNEDY HS,6325 W 56TH ST,HS,41.789961,-87.78084,Kennedy High School,0
609719,46211,LAKE VIEW HS,4015 N ASHLAND AVE,HS,41.954764,-87.668953,Lake View High School,0
609720,46221,LANE TECH HS,2501 W ADDISON ST,HS,41.946645,-87.691013,Lane Tech High School,0
609722,53111,MANLEY HS,2935 W POLK ST,HS,41.870939,-87.699896,Manley High School,0
609723,47041,MARSHALL HS,3250 W ADAMS ST,HS,41.878444,-87.70805,Marshall Metro High School,0
609724,46241,MATHER HS,5835 N LINCOLN AVE,HS,41.987589,-87.702496,Mather High School,0
609725,46251,MORGAN PARK HS,1744 W PRYOR AVE,HS,41.692035,-87.665658,Morgan Park High School,0
609726,47051,BROOKS HS,250 E 111TH ST,HS,41.692763,-87.616353,Brooks College Prep H.S.,0
609727,46261,PHILLIPS HS,244 E PERSHING RD,HS,41.82388,-87.619796,Phillips High School,0
609728,46271,ROOSEVELT HS,3436 W WILSON AVE,HS,41.964828,-87.714819,Roosevelt High School,0
609729,46281,SCHURZ HS,3601 N MILWAUKEE AVE,HS,41.946365,-87.735612,Schurz High School,1
609730,47061,SENN HS,5900 N GLENWOOD AVE,HS,41.989029,-87.667136,Senn High School,0
609732,46291,STEINMETZ HS,3030 N MOBILE AVE,HS,41.935634,-87.783515,Steinmetz High School,1
609733,46301,SULLIVAN HS,6631 N BOSWORTH AVE,HS,42.002688,-87.669192,Sullivan High School,0
609734,46311,TAFT HS,6530 W BRYN MAWR AVE,HS,41.982961,-87.791547,Taft High School,0
609735,53121,TILDEN HS,4747 S UNION AVE,HS,41.80751,-87.642966,Tilden High School,0
609737,47081,VON STEUBEN HS,5039 N KIMBALL AVE,HS,41.973185,-87.713386,Von Steuben Metro High School,0
609738,46321,LINCOLN PARK HS,2001 N ORCHARD ST,HS,41.918268,-87.646009,Lincoln Park High School,0
609739,46331,WASHINGTON HS,3535 E 114TH ST,HS,41.688137,-87.53757,"Washington, G. High School",0
609740,51071,WELLS HS,936 N ASHLAND AVE,HS,41.898995,-87.667483,Wells Comm Acad High School,0
609741,46341,HUBBARD HS,6200 S HAMLIN AVE,HS,41.780526,-87.718014,Hubbard High School,0
609744,49021,NORTHSIDE LEARNING HS,3730 W BRYN MAWR AVE,HS,41.982973,-87.722386,Northside Learning Center,0
609745,49031,SOUTHSIDE HS,7342 S HOYNE AVE,HS,41.759852,-87.675947,Southside Occ. Academy,0
609746,46361,KENWOOD HS,5015 S BLACKSTONE AVE,HS,41.803772,-87.590421,Kenwood Acad. High School,0
609983,23681,HEDGES,4747 S WINCHESTER AVE,ES,41.807112,-87.673327,Hedges Main Elem School,0
609985,23711,HEFFERAN,4409 W WILCOX ST,ES,41.878665,-87.735802,Hefferan Elem School,0
609986,23721,HENDERSON,5650 S WOLCOTT AVE,ES,41.790591,-87.671887,Henderson Elem School,0
609987,31121,HENDRICKS,4316 S PRINCETON AVE,ES,41.815788,-87.633664,Hendricks Elem School,0
609988,23731,HENRY,4250 N SAINT LOUIS AVE,ES,41.958989,-87.715632,Henry Elem School,0
609990,23751,SOUTH LOOP,1601 S DEARBORN ST,ES,41.859741,-87.628349,South Loop Elem School,0
609991,23771,HERZL,3711 W DOUGLAS BLVD,ES,41.862081,-87.718994,Herzl Elem School,0
609993,23791,LARA,4619 S WOLCOTT AVE,ES,41.80977,-87.672182,Lara Academy,0
609994,23801,HIBBARD,3244 W AINSLIE ST,ES,41.970335,-87.710362,Hibbard Elem School,0
609995,23811,HITCH,5625 N MCVICKER AVE,ES,41.983672,-87.779123,Hitch Elem School,0
609996,23821,HOLDEN,1104 W 31ST ST,ES,41.838027,-87.653792,Holden Elem School,0
609997,23831,HOLMES,955 W GARFIELD BLVD,ES,41.793788,-87.649795,Holmes Elem School,0
609874,22871,DIRKSEN,8601 W FOSTER AVE,ES,41.973715,-87.841041,Dirksen Elem School,0
609875,22881,DARWIN,3116 W BELDEN AVE,ES,41.923323,-87.705413,Darwin Elem School,0
609876,22891,DAVIS N,3014 W 39TH PL,ES,41.821852,-87.700202,"Davis, N. Elem School",0
609879,22901,DAWES,3810 W 81ST PL,ES,41.745078,-87.717353,Dawes Elem School,0
609880,29031,DECATUR,7030 N SACRAMENTO AVE,ES,42.009289,-87.704619,Decatur Classical School,0
609883,22931,DENEEN,7240 S WABASH AVE,ES,41.76249,-87.623345,Deneen Elem School,0
609850,22661,GREELEY,832 W SHERIDAN RD,ES,41.95281,-87.65098,Greeley Elem School,0
609851,22671,CHALMERS,2745 W ROOSEVELT RD,ES,41.866435,-87.695259,Chalmers Elem School,0
609852,22681,CHAPPELL,2135 W FOSTER AVE,ES,41.975894,-87.683264,Chappell Achieve. Skills Cntr.,0
609853,22701,CHASE,2021 N POINT ST,ES,41.917993,-87.694562,Chase Elem School,0
609854,22721,CHOPIN,2450 W RICE ST,ES,41.896713,-87.688937,Chopin Elem School,0
609855,30031,CHRISTOPHER,5042 S ARTESIAN AVE,ES,41.801659,-87.685607,Christopher Elem School,0
609856,22731,CLAY,13231 S BURLEY AVE,ES,41.654558,-87.544614,Clay Elem School,0
609857,22741,CLEVELAND,3121 W BYRON ST,ES,41.952042,-87.706443,Cleveland Elem School,0
609859,22751,CLINTON,6110 N FAIRFIELD AVE,ES,41.992541,-87.69836,Clinton Elem School,0
609748,49041,YORK HS,2700 S CALIFORNIA AVE,HS,41.842533,-87.695261,York High School,0
609749,46061,NORTHSIDE PREP HS,5501 N KEDZIE AVE,HS,41.981315,-87.708708,Northside College Prep. H.S.,0
609750,49051,SIMPSON HS,1321 S PAULINA ST,HS,41.864365,-87.668722,Simpson Academy,0
609751,46371,KING HS,4445 S DREXEL BLVD,HS,41.813675,-87.603874,King College Prep,0
609753,47091,CHICAGO AGRICULTURE HS,3857 W 111TH ST,HS,41.691221,-87.71777,Chicago Agriculture H.S.,0
609754,70070,CHICAGO MILITARY HS,3519 S GILES AVE,HS,41.830555,-87.619216,Chicago Military Academy,0
609755,47101,YOUNG HS,211 S LAFLIN ST,HS,41.878603,-87.664233,Young Magnet High School,0
609756,53101,CURIE HS,4959 S ARCHER AVE,HS,41.80306,-87.722042,Curie Metro High School,0
609759,51091,CLEMENTE HS,1147 N WESTERN AVE,HS,41.902626,-87.686906,Clemente Comm Acad High School,0
609760,46381,CARVER MILITARY HS,13100 S DOTY AVE,HS,41.65629,-87.59062,Carver Military Academy,0
609761,46391,CORLISS HS,821 E 103RD ST,HS,41.70666,-87.601216,Corliss High School,0
609762,46401,JULIAN HS,10330 S ELIZABETH ST,HS,41.705859,-87.653749,Julian High School,0
609764,46421,JUAREZ HS,1450 W CERMAK RD,HS,41.85267,-87.664339,Juarez Community Academy,0
609766,49081,VAUGHN HS,4355 N LINDER AVE,HS,41.960364,-87.764663,Vaughn Occ High School,0
609769,49101,GRAHAM HS,2347 S WABASH AVE,HS,41.849675,-87.625315,"Graham, R. Training Center",0
609772,22021,ADDAMS,10810 S AVENUE H,ES,41.698739,-87.532976,Addams Elementary School,0
609773,22031,TUBMAN,2851 N SEMINARY AVE,ES,41.934126,-87.656229,"Tubman, H Elem School",0
609777,22061,ARMOUR,950 W 33RD PL,ES,41.833854,-87.650653,Armour Elem School,0
609779,22081,ARMSTRONG G,2110 W GREENLEAF AVE,ES,42.01015,-87.684442,"Armstrong, G. Elem School",0
609780,41111,MARINE LEADERSHIP AT AMES HS,1920 N HAMLIN AVE,HS,41.916045,-87.721742,Marine Leadership Acad. at Ames,0
609782,22091,AUDUBON,3500 N HOYNE AVE,ES,41.945062,-87.681041,Audubon Elem School,0
609783,30011,JEFFERSON HS,1100 S HAMILTON AVE,HS,41.867832,-87.680418,"Jefferson, N. Alternative Sch",0
609786,22101,AVALON PARK,8045 S KENWOOD AVE,ES,41.748247,-87.591654,Avalon Park Elem School,0
609788,22131,BARNARD,10354 S CHARLES ST,ES,41.705131,-87.658074,Barnard Elem School,0
609789,22141,BARRY,2828 N KILBOURN AVE,ES,41.932511,-87.739388,Barry Elem School,0
609791,22161,BASS,1140 W 66TH ST,ES,41.774246,-87.653532,Bass Elem School,0
609792,22171,BATEMAN,4220 N RICHMOND ST,ES,41.95822,-87.702151,Bateman Elem School,0
609793,22181,NICHOLSON,6006 S PEORIA ST,ES,41.784942,-87.647453,Nicholson Elem School,0
609794,29011,EDISON,4929 N SAWYER AVE,ES,41.971506,-87.709304,Edison Comp Gifted School,0
609795,22191,CLARK ES,1045 S MONITOR AVE,ES,41.867813,-87.770418,Clark Elementary School,0
609796,22201,BEAUBIEN,5025 N LARAMIE AVE,ES,41.972394,-87.757565,Beaubien Elem School,0
609797,22211,BEIDLER,3151 W WALNUT ST,ES,41.885321,-87.705855,Beidler Elem School,1
609798,22221,BELDING,4257 N TRIPP AVE,ES,41.958938,-87.73402,Belding Elem School,0
609799,22231,BELL,3730 N OAKLEY AVE,ES,41.94953,-87.686018,Bell Elem School,0
609800,22241,BENNETT,10115 S PRAIRIE AVE,ES,41.710435,-87.61739,Bennett Elem School,0
609803,22261,BLAINE,1420 W GRACE ST,ES,41.950781,-87.664968,Blaine Elem School,0
609804,22271,MOSAIC,6710 N WASHTENAW AVE,ES,42.003412,-87.697463,Mosaic Elem School (formerly Boone),0
609805,22281,JOPLIN,7931 S HONORE ST,ES,41.749339,-87.669366,Joplin Elem School,0
609806,22291,BRADWELL,7736 S BURNHAM AVE,ES,41.754365,-87.557142,Bradwell Elem School,0
609807,32021,HAMPTON,3434 W 77TH ST,ES,41.753457,-87.708731,Hampton Fine Arts,0
609808,22301,HALEY,11411 S EGGLESTON AVE,ES,41.68666,-87.633632,Haley Elem School,0
609809,22311,BRENTANO,2723 N FAIRFIELD AVE,ES,41.930966,-87.696294,Brentano Math & Sci Academy,0
609810,22321,BRIDGE,3800 N NEW ENGLAND AVE,ES,41.949114,-87.798669,Bridge Elem School,0
609811,22331,BRIGHT,10740 S CALHOUN AVE,ES,41.699726,-87.562084,Bright Elem School,0
609812,22351,BROWN W,54 N HERMITAGE AVE,ES,41.882997,-87.670682,"Brown, W. Elem School",0
609813,22361,BROWNELL,6741 S MICHIGAN AVE,ES,41.77162,-87.621746,Brownell Elem School,0
609815,22371,BOUCHET,7355 S JEFFERY BLVD,ES,41.760847,-87.576075,Bouchet Math & Science Academy,0
609817,22391,BUDLONG,2701 W FOSTER AVE,ES,41.975754,-87.696556,Budlong Elem School,0
609818,22401,BURBANK,2035 N MOBILE AVE,ES,41.917598,-87.7827,Burbank Elem School,0
609819,22411,BURKE,5356 S KING DR,ES,41.79676,-87.616141,Burke Elem School,0
609820,22421,BURLEY,1630 W BARRY AVE,ES,41.937937,-87.669853,Burley Elem School,0
609821,22431,BURNHAM,9928 S CRANDON AVE,ES,41.714402,-87.567131,Burnham Elem School,0
609827,29021,BURNSIDE,650 E 91ST PL,ES,41.728481,-87.607435,Burnside Scholastic Academy,0
609828,22471,BURR,1621 W WABANSIA AVE,ES,41.912358,-87.668661,Burr Elementary School,0
609829,22481,BURROUGHS,3542 S WASHTENAW AVE,ES,41.828868,-87.692457,Burroughs Elem School,0
609830,22491,BRUNSON,932 N CENTRAL AVE,ES,41.897663,-87.765606,Brunson Specialty School,0
609832,22501,BYRNE,5329 S OAK PARK AVE,ES,41.795031,-87.791544,Byrne Elem School,0
609833,22511,DAISY BATES,8546 S CREGIER AVE,ES,41.739226,-87.580729,Daisy Bates Acad. of Soc. Justice (formerly Caldwell),0
609834,22521,LITTLE VILLAGE,2620 S LAWNDALE AVE,ES,41.843698,-87.717319,Little Village Academy,0
609835,22531,CAMERON,1234 N MONTICELLO AVE,ES,41.903792,-87.717927,Cameron Elem School,1
609836,22541,CANTY,3740 N PANAMA AVE,ES,41.948007,-87.829296,Canty Elem School,0
609837,22551,CARNEGIE,1414 E 61ST PL,ES,41.783368,-87.590795,Carnegie Elem School,0
609839,22571,CARROLL,2929 W 83RD ST,ES,41.742517,-87.696012,Carroll Elem School,0
609842,22601,CARSON,5516 S MAPLEWOOD AVE,ES,41.793272,-87.6878,Carson Elementary School,0
609844,22611,CARTER,5740 S MICHIGAN AVE,ES,41.789828,-87.622453,Carter Elem School,0
609845,22621,CARVER G,901 E 133RD PL,ES,41.653702,-87.599516,Carver Elem. School,0
609848,22641,ALDRIDGE,630 E 131ST ST,ES,41.657405,-87.606474,Aldridge Elem School,0
609849,22651,CASSELL,11314 S SPAULDING AVE,ES,41.687347,-87.703215,Cassell Elem School,0
609861,22761,CLISSOLD,2350 W 110TH PL,ES,41.693026,-87.680897,Clissold Elem School,0
609862,22771,COLES,8441 S YATES BLVD,ES,41.741413,-87.56597,Coles Elem School,0
609863,22791,COLUMBUS,1003 N LEAVITT ST,ES,41.899566,-87.681938,Columbus Elem School,0
609864,22801,COOK,8150 S BISHOP ST,ES,41.745237,-87.659775,Cook Elem School,0
609865,22811,JORDAN,7414 N WOLCOTT AVE,ES,42.017088,-87.677763,Jordan Community School,0
609866,22821,COONLEY,4046 N LEAVITT ST,ES,41.955553,-87.683765,Coonley Elem School,0
609867,22831,COOPER,1624 W 19TH ST,ES,41.856031,-87.667227,Cooper Elem School,0
609869,22841,LANGFORD,6010 S THROOP ST,ES,41.784681,-87.657169,Langford Elem School,0
609870,22851,CORKERY,2510 S KILDARE AVE,ES,41.845602,-87.731193,Corkery Elem School,0
609871,26731,VICK,2554 W 113TH ST,ES,41.688191,-87.685677,Vick Early Chld & Fam Center,0
609872,22861,PEREZ,1241 W 19TH ST,ES,41.856029,-87.65798,Perez Elem School,0
609873,31041,CROWN,2128 S SAINT LOUIS AVE,ES,41.852663,-87.71247,Crown Comm Academy,0
609978,23641,SMITH,744 E 103RD ST,ES,41.707558,-87.60466,"Smith, W. Elem School",0
609979,23651,HEALY,3010 S PARNELL AVE,ES,41.839595,-87.640341,Healy Achievement Skills Ctr,0
609981,23671,HEARST,4640 S LAMON AVE,ES,41.808175,-87.745726,Hearst Elem School,0
609884,22941,DEVER,3436 N OSCEOLA AVE,ES,41.942552,-87.813132,Dever Elem School,0
609885,22951,DEWEY,5415 S UNION AVE,ES,41.795646,-87.642652,Dewey Elem School,0
609887,22971,DIXON,8306 S SAINT LAWRENCE AVE,ES,41.743669,-87.609979,Dixon Elem School,0
609891,22991,DOOLITTLE,535 E 35TH ST,ES,41.831121,-87.612275,Doolittle East Elem School,0
609893,23001,DORE,7134 W 65TH ST,ES,41.773899,-87.799359,Dore Elem School,0
609894,23011,DRAKE,2710 S DEARBORN ST,ES,41.844043,-87.628553,Drake Elem School,1
609895,29041,TURNER-DREW,9300 S PRINCETON AVE,ES,41.725609,-87.630164,Turner-Drew Language Academy,0
609896,23021,DRUMMOND,1845 W CORTLAND ST,ES,41.915914,-87.674495,Drummond Elem School,0
609897,23031,EARLE,2040 W 62ND ST,ES,41.781225,-87.675547,Earle Elem School,0
609898,23041,EBERHART,3400 W 65TH PL,ES,41.77442,-87.707953,Eberhart Elem School,0
609899,23051,EBINGER,7350 W PRATT AVE,ES,42.004408,-87.81117,Ebinger Elem School,0
609900,23061,CURTIS,32 E 115TH ST,ES,41.685418,-87.621653,Curtis Elem School,0
609901,23071,EDGEBROOK,6525 N HIAWATHA AVE,ES,41.999437,-87.76184,Edgebrook Elem School,0
609902,31061,METCALFE,12339 S NORMAL AVE,ES,41.669444,-87.634306,Metcalfe Magnet School,0
609903,23081,EDWARDS,4815 S KARLOV AVE,ES,41.805542,-87.725856,Edwards Elem School,0
609904,23101,ELLINGTON,243 N PARKSIDE AVE,ES,41.88553,-87.766589,Ellington Elem School,0
609907,29051,ERICSON,3600 W 5TH AVE,ES,41.875744,-87.715804,Ericson Elem School,0
609908,23131,ESMOND,1865 W MONTVALE AVE,ES,41.68942,-87.669159,Esmond Elem School,0
609909,23141,EVERETT,3419 S BELL AVE,ES,41.831555,-87.68131,Everett Elem School,0
609910,23151,FALCONER,3020 N LAMON AVE,ES,41.935785,-87.749331,Falconer Elem School,0
609912,23161,FARNSWORTH,5414 N LINDER AVE,ES,41.97979,-87.766072,Farnsworth Elem School,0
609917,23201,FERNWOOD,10041 S UNION AVE,ES,41.711184,-87.640414,Fernwood Elem School,0
609918,23211,FIELD,7019 N ASHLAND AVE,ES,42.009664,-87.669985,Field Elem School,0
609919,23221,FISKE,6020 S LANGLEY AVE,ES,41.785183,-87.608633,Fiske Elem School,0
609920,29071,KANOON,2233 S KEDZIE AVE,ES,41.850771,-87.705112,Kanoon Magnet School,0
609921,23231,TELPOCHCALLI,2832 W 24TH BLVD,ES,41.847947,-87.696006,Telpochcalli  Elem. School,0
609922,26771,BELMONT-CRAGIN,6112 W. FULLERTON AVE,ES,41.921604,-87.757953,Belmont-Cragin Comm. Elem. Sch,0
609924,23241,FORT DEARBORN,9025 S THROOP ST,ES,41.729673,-87.655481,Fort Dearborn Elem School,1
609925,23251,KELLMAN,3030 W ARTHINGTON ST,ES,41.870168,-87.702163,Kellman Corporate Comm. School,0
609926,29081,FRANKLIN,225 W EVERGREEN AVE,ES,41.9066,-87.635513,Franklin Magnet School,0
609927,23261,FOSTER PARK,8530 S WOOD ST,ES,41.738425,-87.668099,Foster Park Elem School,0
609928,23271,FULLER,4214 S ST LAWRENCE AVE,ES,41.818003,-87.611784,Fuller Elem School,0
609929,23281,FULTON,5300 S HERMITAGE AVE,ES,41.79758,-87.668436,Fulton Elem School,0
609930,23291,FUNSTON,2010 N CENTRAL PARK AVE,ES,41.917617,-87.716892,Funston Elem School,0
609933,31081,GALE,1631 W JONQUIL TER,ES,42.021091,-87.671939,Gale Community Academy,0
609935,29091,GALLISTEL,10347 S EWING AVE,ES,41.706801,-87.535175,Gallistel Magnet School,0
609937,23301,GARVY,5225 N OAK PARK AVE,ES,41.976352,-87.796235,"Garvy, J. Elem School",0
609938,23311,GARY,3740 W 31ST ST,ES,41.837065,-87.718697,Gary Elem School,0
609939,23321,GILLESPIE,9301 S STATE ST,ES,41.725332,-87.623719,Gillespie Elem School,0
609941,29111,RANDOLPH,7316 S HOYNE AVE,ES,41.760614,-87.675966,Randolph Magnet School,0
609942,23341,GOETHE,2236 N ROCKWELL ST,ES,41.922831,-87.6929,Goethe Elem School,0
609943,23351,OWENS,12302 S STATE ST,ES,41.670618,-87.622546,"Owens, J. Elem. Comm. Academy",0
609944,23361,GRISSOM,12810 S ESCANABA AVE,ES,41.662481,-87.553307,Grissom Elem School,0
609945,23371,GOUDY,5120 N WINTHROP AVE,ES,41.975817,-87.657912,Goudy Elem School,0
609947,23391,GRAHAM ES,4436 S UNION AVE,ES,41.813304,-87.643344,"Graham, A. Elem School",0
609949,23401,GRAY,3730 N LARAMIE AVE,ES,41.948764,-87.757116,Gray Elem School,0
609950,23411,ORTIZ DE DOMINGUEZ,3000 S LAWNDALE AVE,ES,41.838791,-87.71719,Dominguez Elementary School,0
609951,23421,ARIEL,1119 E 46TH ST,ES,41.811173,-87.597503,Ariel Community Academy,0
609952,23431,GREENE,3525 S HONORE ST,ES,41.829669,-87.671492,"Greene, N. Elem School",0
609954,23441,GREGORY,3715 W POLK ST,ES,41.870742,-87.718666,Gregory Elem School,0
609955,23451,GRESHAM,8524 S GREEN ST,ES,41.73892,-87.645025,Gresham Elem School,0
609956,23461,GRIMES,5450 W 64TH PL,ES,41.775464,-87.758803,Grimes Elem School,0
609958,29121,GUNSAULUS,4420 S SACRAMENTO AVE,ES,41.813007,-87.699364,Gunsaulus Scholastic Academy,0
609959,23481,HAINES,247 W 23RD PL,ES,41.849958,-87.633806,Haines Elem School,0
609975,31111,HAY,1018 N LARAMIE AVE,ES,41.899171,-87.755813,Hay Community Academy,0
609976,23621,HAYT,1518 W GRANVILLE AVE,ES,41.994541,-87.668504,Hayt Elem School,0
609977,23631,WOODLAWN,6657 S KIMBARK AVE,ES,41.773366,-87.594392,Woodlawn Community,0
610000,23851,HOWE,720 N LOREL AVE,ES,41.893612,-87.759398,Howe Elem School,0
610002,23871,HOYNE,8905 S CRANDON AVE,ES,41.733338,-87.568228,Hoyne Elem School,0
610003,23881,CUFFE,8324 S RACINE AVE,ES,41.742452,-87.653633,"Cuffe Math, Sci & Tech Acad",0
610004,23891,CULLEN,10650 S EBERHART AVE,ES,41.700335,-87.611244,Cullen Elem School,0
610005,23901,HUGHES C,4247 W 15TH ST,ES,41.860518,-87.731777,"Hughes, C. Elem School",0
610006,23911,HURLEY,3849 W 69TH PL,ES,41.766785,-87.719541,Hurley Elem School,0
610009,29141,GALILEO,820 S CARPENTER ST,ES,41.871255,-87.653366,Galileo Magnet Academy,0
610010,23921,JAHN,3149 N WOLCOTT AVE,ES,41.939248,-87.67581,Jahn Elem School,0
610011,23931,JAMIESON,5650 N MOZART ST,ES,41.984641,-87.700529,Jamieson Achievement Skills Ct,0
610013,31141,PILSEN,1420 W 17TH ST,ES,41.858849,-87.662209,Pilsen Comm Academy,0
610015,23961,JUNGMAN,1746 S MILLER ST,ES,41.858065,-87.652302,Jungman Elem School,0
610016,23971,KELLOGG,9241 S LEAVITT ST,ES,41.725263,-87.677233,Kellogg Elem School,0
610017,29151,SAUCEDO,2850 W 24TH BLVD,ES,41.847941,-87.697316,Saucedo Scholastic Academy,0
610019,23991,KERSHAW,6450 S LOWE AVE,ES,41.776453,-87.640892,Kershaw Elem School,0
610021,24011,CASALS,3501 W POTOMAC AVE,ES,41.904503,-87.714234,Casals Elementary School,0
610105,24771,ORIOLE PARK,5424 N OKETO AVE,ES,41.978501,-87.812054,Oriole Park Elem School,0
610106,24781,PICCOLO,1040 N KEELER AVE,ES,41.90014,-87.731261,Piccolo Specialty School,0
610107,24791,OTIS,525 N ARMOUR ST,ES,41.891806,-87.665426,Otis Elem School,0
610108,24801,OTOOLE,6550 S SEELEY AVE,ES,41.774571,-87.674865,O'Toole Elem School,0
610109,29241,OWEN,8247 S CHRISTIANA AVE,ES,41.74285,-87.705749,"Owen, W. Scholastic Acad.",0
610110,24811,WELLS ES,249 E 37TH ST,ES,41.827355,-87.61978,Wells Preparatory School,0
610111,24821,PALMER,5051 N KENNETH AVE,ES,41.973289,-87.739213,Palmer Elem School,0
610112,31181,PARKER,6800 S STEWART AVE,ES,41.77078,-87.634086,Parker Comm Academy,0
610115,24841,PARK MANOR,7037 S RHODES AVE,ES,41.766477,-87.611546,Park Manor Elem School,0
609960,23491,HALE,6140 S MELVINA AVE,ES,41.780192,-87.776579,Hale Elem School,0
609961,31101,NINOS HEROES,8344 S COMMERCIAL AVE,ES,41.743753,-87.551862,Ninos Heroes Magnet School,0
609963,23501,HAMILTON,1650 W CORNELIA AVE,ES,41.94522,-87.670865,Hamilton Elem School,0
609964,23511,HAMLINE,4747 S BISHOP ST,ES,41.807242,-87.661175,Hamline Elem School,0
609966,23531,HAMMOND,2819 W 21ST PL,ES,41.852719,-87.696243,Hammond Elem School,0
609967,23541,FINKL,2332 S WESTERN AVE,ES,41.849215,-87.685668,Finkl Academy,0
609968,23551,MCAULIFFE,1841 N SPRINGFIELD AVE,ES,41.914816,-87.723931,"McAuliffe, C. Elem. School",0
609969,23561,HARTE,1556 E 56TH ST,ES,41.793447,-87.586855,Harte Elem School,0
609971,23581,HARVARD,7525 S HARVARD,ES,41.757341,-87.632737,Harvard School of Excellence,0
609972,23591,HAUGAN,4540 N HAMLIN AVE,ES,41.964029,-87.723128,Haugan Elem School,0
609973,23611,ZAPATA,2728 S KOSTNER AVE,ES,41.841394,-87.734313,Zapata Academy,0
609974,29131,HAWTHORNE,3319 N CLIFTON AVE,ES,41.942275,-87.657709,Hawthorne Scholastic Academy,0
610022,24021,KILMER,6700 N GREENVIEW AVE,ES,42.00364,-87.668222,Kilmer Elem School,0
610024,24051,CARDENAS,2345 S MILLARD AVE,ES,41.848488,-87.716017,Cardenas Elem School,0
610026,24071,KINZIE,5625 S MOBILE AVE,ES,41.789965,-87.779483,Kinzie Elem School,0
610027,24081,KIPLING,9351 S LOWE AVE,ES,41.723627,-87.639521,Kipling Elem School,0
610029,24101,LOZANO,1501 N GREENVIEW AVE,ES,41.908886,-87.665093,Lozano Blg. & Int'l. Ctr.,0
610030,31151,KOZMINSKI,936 E 54TH ST,ES,41.798002,-87.602481,Kozminski Community Academy,0
610032,24131,GREEN,1150 W 96TH ST,ES,41.719292,-87.6525,"Green, Wendell Elem School",0
610033,29161,LASALLE,1734 N ORLEANS ST,ES,41.9139,-87.637565,LaSalle Language Academy,0
610034,31161,LAWNDALE,3500 W DOUGLAS BLVD,ES,41.86296,-87.712957,Lawndale Comm Academy,0
610036,24151,LEWIS,1431 N LEAMINGTON AVE,ES,41.906826,-87.75455,Lewis Elem School,0
610037,24171,LIBBY,5300 S LOOMIS BLVD,ES,41.797685,-87.659933,Libby Elem School,0
610038,24191,LINCOLN,615 W KEMPER PL,ES,41.924525,-87.644497,Lincoln Elem School,0
610039,24201,VON LINNE,3221 N SACRAMENTO AVE,ES,41.940009,-87.702635,Linne Elem School,0
610040,24221,LLOYD,2103 N LAMON AVE,ES,41.918814,-87.748515,Lloyd Elem School,0
610041,24231,LOCKE J,2828 N OAK PARK AVE,ES,41.931762,-87.795604,Locke Elem School,0
610043,24241,LOVETT,6333 W BLOOMINGDALE AVE,ES,41.912718,-87.783919,Lovett Elem School,0
610044,24251,LOWELL,3320 W HIRSCH ST,ES,41.90652,-87.710217,Lowell Elem School,0
610046,24281,LYON,2941 N MCVICKER AVE,ES,41.934192,-87.777174,Lyon Elem School,0
610047,24301,MADISON,7433 S DORCHESTER AVE,ES,41.759548,-87.590712,Madison Elem School,0
610048,24311,MANIERRE,1420 N HUDSON AVE,ES,41.908247,-87.639827,Manierre Elem School,0
610051,41121,NORTHWEST,5252 W PALMER ST,ES,41.920611,-87.757921,Northwest Middle School,0
610052,24331,MANN,8050 S CHAPPEL AVE,ES,41.748274,-87.574816,Mann Elem School,0
610053,24341,MARQUETTE,6550 S RICHMOND ST,ES,41.773881,-87.69703,Marquette West Elem School,0
610054,24361,MARSH,9822 S EXCHANGE AVE,ES,41.716588,-87.552483,Marsh Elem School,0
610055,24371,FARADAY,3250 W MONROE ST,ES,41.879714,-87.708092,Faraday Elem School,0
610056,24381,MASON,4217 W 18TH ST,ES,41.856864,-87.731672,Mason Elem School,0
610057,26701,FAIRFIELD,6201 S FAIRFIELD AVE,ES,41.780904,-87.692115,Fairfield Academy,0
610059,24401,MAYER,2250 N CLIFTON AVE,ES,41.923204,-87.657287,Mayer Elem School,0
610060,29171,CHICAGO WORLD LANGUAGE ACADEMY,1340 W HARRISON ST,ES,41.8743,-87.660985,Chicago World Language Acad.,0
610062,24421,MINOSO,3527 S WALLACE ST,ES,41.829993,-87.641103,Minoso Elem School (formerly McClellan),1
610063,24431,MCCORMICK,2712 S SAWYER AVE,ES,41.842267,-87.7063,McCormick Elem School,1
610065,24441,TILL,6543 S CHAMPLAIN AVE,ES,41.775424,-87.609357,Till Math and Science Academy,0
610066,29181,MCDADE,8801 S INDIANA AVE,ES,41.73455,-87.619214,McDade Classical School,0
610067,24451,MCKAY,6901 S FAIRFIELD AVE,ES,41.768143,-87.691787,McKay Elem School,0
610068,24461,HANSON PARK,5411 W FULLERTON AVE,ES,41.923955,-87.761515,Hanson Park Elem School,0
610070,24471,MCPHERSON,4728 N WOLCOTT AVE,ES,41.967847,-87.676288,McPherson Elem School,0
610073,24511,MITCHELL,2233 W OHIO ST,ES,41.892082,-87.683185,Mitchell Elem School,0
610074,24531,MONROE,3651 W SCHUBERT AVE,ES,41.929989,-87.719224,Monroe Elem School,0
610076,24551,MOOS,1711 N CALIFORNIA AVE,ES,41.912505,-87.696941,Moos Elem School,0
610077,24571,MORRILL,6011 S ROCKWELL ST,ES,41.784313,-87.688549,Morrill Elem School,1
610078,29191,INTER-AMERICAN,851 W WAVELAND AVE,ES,41.949003,-87.651573,Inter-American Magnet School,0
610081,29201,SHERIDAN,533 W 27TH ST,ES,41.8444,-87.64134,"Sheridan, M. Academy",0
610082,24591,MOUNT GREENWOOD,10841 S HOMAN AVE,ES,41.695734,-87.70581,Mt. Greenwood Elementary School,0
610083,30051,BEARD,6445 W STRONG ST,ES,41.970125,-87.78963,Beard Spec. Ed. Facility,0
610084,29211,KELLER,3020 W 108TH ST,ES,41.69717,-87.697278,Keller Magnet School,0
610086,24601,MOUNT VERNON,10540 S MORGAN ST,ES,41.701952,-87.647652,Mt. Vernon Elem School,0
610087,30071,BLAIR,6751 W 63RD PL,ES,41.776556,-87.790604,Blair Spec. Ed. Facility,0
610088,24611,MOZART,2200 N HAMLIN AVE,ES,41.92091,-87.721888,Mozart Elem School,0
610089,24621,MURPHY,3539 W GRACE ST,ES,41.950078,-87.716832,Murphy Elem School,0
610090,29221,MURRAY,5335 S KENWOOD AVE,ES,41.798535,-87.59334,Murray Language Academy,0
610091,24631,BROWN R,12607 S UNION AVE,ES,41.664873,-87.638958,"Brown, R. Community Academy",0
610092,24641,NASH,4837 W ERIE ST,ES,41.89181,-87.747936,Nash Elem School,0
610093,24651,NEIL,8555 S MICHIGAN AVE,ES,41.738407,-87.620933,Neil Elem School,0
610094,24661,NETTELHORST,3252 N BROADWAY ST,ES,41.941637,-87.644561,Nettelhorst Elem School,0
610095,29231,NEWBERRY,700 W WILLOW ST,ES,41.913947,-87.64599,Newberry Magnet School,0
610096,24671,NIGHTINGALE,5250 S ROCKWELL ST,ES,41.797714,-87.689139,Nightingale Elem School,0
610097,24681,NIXON,2121 N KEELER AVE,ES,41.919581,-87.73142,Nixon Elem School,0
610098,24691,NOBEL,4127 W HIRSCH ST,ES,41.906155,-87.729955,Nobel Elem School,0
610099,24711,NORWOOD PARK,5900 N NINA AVE,ES,41.988153,-87.802979,Norwood Park Elem School,0
610100,24721,WEST PARK,1425 N TRIPP AVE,ES,41.906907,-87.732443,West Park Acad Fine Arts & Tec,0
610102,24741,OGLESBY,7646 S GREEN ST,ES,41.75467,-87.64547,Oglesby Elem School,0
610103,24751,OKEEFFE,6940 S MERRILL AVE,ES,41.768602,-87.572806,O'Keeffe Elem School,0
610104,24761,ONAHAN,6634 W RAVEN ST,ES,41.99379,-87.793108,Onahan Elem School,0
610116,31201,PARKSIDE,6938 S EAST END AVE,ES,41.768555,-87.582954,Parkside Comm Academy,0
610117,24851,PASTEUR,5825 S KOSTNER AVE,ES,41.786895,-87.732666,Pasteur Elem School,0
610120,24871,PECK,3826 W 58TH ST,ES,41.787899,-87.719216,Peck Elem School,0
610121,24881,IRVING,749 S OAKLEY BLVD,ES,41.871595,-87.683616,"Irving, W. Elementary School",0
610122,24891,PEIRCE,1423 W BRYN MAWR AVE,ES,41.983456,-87.66585,Peirce Elem School,0
610123,24911,PENN,1616 S AVERS AVE,ES,41.858372,-87.722386,Penn Elem School,0
610124,24921,WASHINGTON H ES,9130 S UNIVERSITY AVE,ES,41.728534,-87.596257,"Washington, Harold Elem. Sch.",0
610125,24931,RUIZ,2410 S LEAVITT ST,ES,41.848101,-87.680745,Ruiz Elementary School,0
610126,29251,PERSHING,3200 S CALUMET AVE,ES,41.836527,-87.618338,Pershing East Magnet School,0
610127,24941,PETERSON,5510 N CHRISTIANA AVE,ES,41.981557,-87.712583,Peterson Elem. School,0
610128,24951,GARVEY,10309 S MORGAN ST,ES,41.706603,-87.647577,"Garvey, M. Elem School",0
610129,24961,PICKARD,2301 W 21ST PL,ES,41.8529,-87.683291,Pickard Elem School,0
610130,24971,PIRIE,650 E 85TH ST,ES,41.74034,-87.607891,Pirie Elem School,0
610131,24981,PLAMONDON,2642 W 15TH PL,ES,41.860259,-87.692526,Plamondon Elem School,0
610132,29261,POE,10538 S LANGLEY AVE,ES,41.70263,-87.606419,Poe Classical School,0
610133,24991,WARD L,646 N LAWNDALE AVE,ES,41.893236,-87.718797,"Ward, L. Elem School",0
610135,25011,PORTAGE PARK,5330 W BERTEAU AVE,ES,41.956988,-87.761007,Portage Park Elem School,0
610136,25021,PRESCOTT,1632 W WRIGHTWOOD AVE,ES,41.928841,-87.669528,Prescott Elem School,0
610137,25031,PRUSSING,4650 N MENARD AVE,ES,41.965619,-87.772414,Prussing Elem School,0
610138,31211,PULASKI,2230 W MCLEAN AVE,ES,41.918486,-87.683801,Pulaski Comm. Academy,0
610139,25041,PULLMAN,11311 S FORRESTVILLE AVE,ES,41.688819,-87.609431,Pullman Elem School,0
610141,25061,RAVENSWOOD,4332 N PAULINA ST,ES,41.960746,-87.670922,Ravenswood Elem School,0
610142,25071,RAY,5631 S KIMBARK AVE,ES,41.792348,-87.594752,Ray Elem School,0
610143,25091,REAVIS,834 E 50TH ST,ES,41.804174,-87.604925,Reavis Elem School,0
610144,25101,REILLY,3650 W SCHOOL ST,ES,41.941094,-87.719541,Reilly Elem School,0
610145,25111,REINBERG,3425 N MAJOR AVE,ES,41.943019,-87.768983,Reinberg Elem School,0
610146,25121,REVERE,1010 E 72ND ST,ES,41.764196,-87.600177,Revere Elem School,0
610147,25141,ROGERS,7345 N WASHTENAW AVE,ES,42.015265,-87.697185,Rogers Elem School,0
610148,25151,CHAVEZ,4747 S MARSHFIELD AVE,ES,41.807143,-87.666037,Chavez Elem School,0
610152,25181,RUGGLES,7831 S PRAIRIE AVE,ES,41.751946,-87.618066,Ruggles Elem School,0
610153,25191,RYDER,8716 S WALLACE ST,ES,41.735379,-87.638843,Ryder Elem School,0
610155,25211,SAUGANASH,6040 N KILPATRICK AVE,ES,41.991169,-87.745951,Sauganash Elem School,0
610157,25231,SAWYER,5248 S SAWYER AVE,ES,41.797498,-87.705006,Sawyer Elem School,0
610158,29271,SAYRE,1850 N NEWLAND AVE,ES,41.914151,-87.798721,Sayre Language Academy,0
610159,25241,SCAMMON,4201 W HENDERSON ST,ES,41.941678,-87.732179,Scammon Elem School,0
610163,30081,STOCK,7507 W BIRCHWOOD AVE,ES,42.016892,-87.814195,"Stock, F. Elem School",0
610165,25291,SCHUBERT,2727 N LONG AVE,ES,41.930403,-87.76119,Schubert Elem School,0
610167,25301,SEWARD,4600 S HERMITAGE AVE,ES,41.810333,-87.668772,Seward Elem School,0
610170,20071,COLUMBIA EXPLORERS,4520 S KEDZIE AVE,ES,41.811069,-87.704199,Columbia Explorers Academy,0
610171,25331,MIRELES,9000 S EXCHANGE AVE,ES,41.731717,-87.552788,Mireles Academy,0
610172,25341,SHERMAN,1000 W 52ND ST,ES,41.799766,-87.650221,Sherman Elem School,0
610173,25351,SHERWOOD,245 W 57TH ST,ES,41.7908,-87.632279,Sherwood Elem School,0
610174,25361,SHIELDS,4250 S ROCKWELL ST,ES,41.815909,-87.689647,Shields Elem School,0
610175,25371,SHOESMITH,1330 E 50TH ST,ES,41.804294,-87.593905,Shoesmith Elem School,0
610176,25381,SHOOP,11140 S BISHOP ST,ES,41.690919,-87.658669,Shoop Academy,0
610177,29281,SKINNER,1260 W ADAMS ST,ES,41.879103,-87.659419,Skinner Classical West School,0
610178,25391,SCHMID,9755 S GREENWOOD AVE,ES,41.716989,-87.596932,Schmid Elem School,0
610179,25401,SMYSER,4310 N MELVINA AVE,ES,41.958868,-87.781975,Smyser Elem School,0
610180,25411,SMYTH,1059 W 13TH ST,ES,41.865351,-87.653445,"Smyth, J. Elem School",0
610182,25431,SOLOMON,6206 N HAMLIN AVE,ES,41.993942,-87.724043,Solomon Elem School,0
610183,25441,SPENCER,214 N LAVERGNE AVE,ES,41.884876,-87.750445,Spencer Elem School,1
610185,25471,STEVENSON,8010 S KOSTNER AVE,ES,41.747107,-87.731666,Stevenson Elem School,1
610188,25491,DUNNE,10845 S UNION AVE,ES,41.696496,-87.639974,Dunne Elem School,0
610191,29291,STONE,6239 N LEAVITT ST,ES,41.995359,-87.684793,Stone Scholastic Academy,0
610192,25521,STOWE,3444 W WABANSIA AVE,ES,41.911938,-87.713318,Stowe Elem School,0
610193,25541,NEW SULLIVAN,8331 S MACKINAW AVE,ES,41.743829,-87.542928,New Sullivan Elem. School,0
610194,31221,SUMNER,4320 W 5TH AVE,ES,41.870828,-87.733524,Sumner Elem School,0
610195,25561,SUTHERLAND,10015 S LEAVITT ST,ES,41.711445,-87.676821,Sutherland Elem School,0
610196,25571,SWIFT,5900 N WINTHROP AVE,ES,41.989139,-87.658296,Swift Elem School,0
610197,25581,TALCOTT,1840 W OHIO ST,ES,41.892405,-87.673723,Talcott Elem School,0
610226,26721,SANDOVAL,5534 S SAINT LOUIS AVE,ES,41.792346,-87.710987,Sandoval Elem. School,0
610227,25841,WHITNEY,2815 S KOMENSKY AVE,ES,41.84008,-87.725546,Whitney Elem School,0
610228,25861,WHITTIER,1900 W 23RD ST,ES,41.850481,-87.673392,Whittier Elem School,0
610229,25871,PRITZKER,2009 W SCHILLER ST,ES,41.907053,-87.677761,"Pritzker, A N  Elem School",0
610230,25881,WILDWOOD,6950 N HIAWATHA AVE,ES,42.007491,-87.778345,Wildwood Elem School,0
610231,32031,NATIONAL TEACHERS,55 W CERMAK RD,ES,41.8528,-87.629308,National Teachers Academy,0
610390,45221,RICKOVER MILITARY HS,5700 W BERTEAU AVE,HS,41.957599,-87.769938,Rickover Naval Academy,0
610391,46511,LINDBLOM HS,6130 S WOLCOTT AVE,HS,41.782041,-87.671662,Lindblom Math & Science Acad.,0
610392,52011,WORLD LANGUAGE HS,3120 S KOSTNER AVE,HS,41.834397,-87.735292,World Language School,0
610394,26861,UPLIFT HS,900 W WILSON AVE,HS,41.965547,-87.652473,UPLIFT Community School,0
610396,26791,TARKINGTON,3330 W 71ST ST,ES,41.764407,-87.706445,Tarkington Sch of Excellence,0
610402,46521,DEVRY HS,1900 W LAWRENCE AVE,HS,41.96882,-87.676326,Devry Advantage,0
610405,26881,SUDER,2022 W WASHINGTON BLVD,ES,41.883215,-87.677636,Suder Campus Montessori,0
610198,25591,TAYLOR,9912 S AVENUE H,ES,41.71547,-87.532971,Taylor Elem School,0
610199,26751,COLEMON,1441 W 119TH ST,ES,41.677505,-87.658111,Colemon Academy,0
610200,25601,THORP J,8914 S BUFFALO AVE,ES,41.733324,-87.54428,"Thorp, J. N. Elem School",0
610201,29301,THORP O,6024 W WARWICK AVE,ES,41.948571,-87.777631,"Thorp, O. A. Scholastic Acad",0
610202,25621,TILTON,223 N KEELER AVE,ES,41.884102,-87.730566,Tilton Elem School,0
610203,25631,MONARCAS ACADEMY,5815 S HOMAN AVE,ES,41.787523,-87.708179,Monarcas Elem School (formerly Tonti),0
610206,25661,TWAIN,5134 S LOTUS AVE,ES,41.799046,-87.758928,Twain Elem School,0
610207,29311,VANDERPOEL,9510 S PROSPECT AVE,ES,41.720817,-87.665559,Vanderpoel Magnet School,0
610208,25671,LAVIZZO,138 W 109TH ST,ES,41.696262,-87.627148,Lavizzo Elem. School,0
610209,25681,VOLTA,4950 N AVERS AVE,ES,41.971634,-87.724605,Volta Elem School,0
610212,32011,ALBANY PARK,4929 N SAWYER AVE,ES,41.971504,-87.710609,Albany Park Multicultural Acad,0
610213,25711,WADSWORTH,6650 S ELLIS AVE,ES,41.773478,-87.601018,Wadsworth Elem School,0
610215,41041,MADERO,3202 W 28TH ST,ES,41.840957,-87.705064,Madero Elementary School,0
610216,25731,WALSH,2015 S PEORIA ST,ES,41.854836,-87.648086,Walsh Elem School,0
610217,25751,WARD J,2701 S SHIELDS AVE,ES,41.84398,-87.635356,"Ward, J. Elem School",0
610218,25761,WARREN,9239 S JEFFERY AVE,ES,41.726763,-87.575353,Warren Elem School,0
610219,25771,WASHINGTON G ES,3611 E 114TH ST,ES,41.688131,-87.536015,"Washington, G. Elem School",0
610220,25781,WATERS,4540 N CAMPBELL AVE,ES,41.964365,-87.691333,Waters Elem School,0
610221,25791,WEBSTER,4055 W ARTHINGTON ST,ES,41.869916,-87.727524,Webster Elem School,0
610223,25811,WENTWORTH,1340 W 71ST ST,ES,41.765076,-87.658205,Wentworth Elem School,0
610225,25831,WHISTLER,11533 S ADA ST,ES,41.683907,-87.655384,Whistler Elem School,0
610234,25911,YATES,1839 N RICHMOND ST,ES,41.915039,-87.70028,Yates Elem School,1
610235,25921,YOUNG ES,1434 N PARKSIDE AVE,ES,41.906791,-87.767143,Young Elem School,0
610237,25931,BEETHOVEN,25 W 47TH ST,ES,41.809135,-87.627137,Beethoven Elem School,0
610238,25941,BOND,7050 S MAY ST,ES,41.765361,-87.653018,Bond Elem School,0
610239,25951,DALEY,5024 S WOLCOTT AVE,ES,41.802343,-87.672206,Daley Academy,0
610242,25991,BRENNEMANN,4251 N CLARENDON AVE,ES,41.959984,-87.649749,Brennemann Elem School,0
610244,41051,CLARK HS,5101 W HARRISON ST,HS,41.872885,-87.753325,"Clark, M. Magnet High School",0
610245,41061,DOUGLASS HS,543 N WALLER AVE,HS,41.890369,-87.767668,Douglass High School,0
610246,29321,BEASLEY,5255 S STATE ST,ES,41.798465,-87.625692,Beasley Academic Center,0
610248,45211,CHICAGO ACADEMY ES,3400 N AUSTIN AVE,ES,41.943056,-87.778187,Chicago Academy,0
610249,26781,TALMAN,5450 S TALMAN AVE,ES,41.794048,-87.690261,Talman Comm. Elem. School,0
610250,30101,SALAZAR,160 W WENDELL ST,ES,41.901417,-87.633632,Salazar Blng Ed Ctr,0
610251,26021,CATHER,2908 W WASHINGTON BLVD,ES,41.88295,-87.699187,Cather Elem School,0
610252,26031,DETT,2131 W MONROE ST,ES,41.87987,-87.680315,Dett Elem School,0
610254,26051,DVORAK,3615 W 16TH ST,ES,41.858883,-87.715744,Dvorak Elem School,0
610256,26061,ROBINSON,4225 S LAKE PARK AVE,ES,41.817349,-87.599067,Robinson Elem School,0
610257,26091,MORTON,431 N TROY ST,ES,41.889178,-87.705108,Morton School of Excellence,0
610263,26141,DULLES,6311 S CALUMET AVE,ES,41.7799,-87.617214,Dulles Elem School,0
610268,26191,ASHE,8505 S INGLESIDE AVE,ES,41.740184,-87.601174,Ashe Elem School,0
610269,26201,MCCUTCHEON,4865 N SHERIDAN RD,ES,41.970949,-87.654758,McCutcheon Elem School,0
610271,29341,JENSEN,3030 W HARRISON ST,ES,41.873815,-87.702241,Jensen Scholastic Academy,0
610274,26231,JOHNSON,1420 S ALBANY AVE,ES,41.861836,-87.703139,Johnson Elem School,0
610276,26251,MOLLISON,4415 S DR MARTIN L KING JR DR,ES,41.814358,-87.616618,Mollison Elem School,0
610279,26281,TANNER,7350 S EVANS AVE,ES,41.760673,-87.606791,Tanner Elem School,0
610281,26291,POWELL,7511 S SOUTH SHORE DR,ES,41.760332,-87.556789,Powell Elem School,0
610282,26301,MCNAIR,4820 W WALTON ST,ES,41.897819,-87.746731,McNair School of Excellence,0
610284,22071,NEW FIELD,1707 W MORSE AVE,ES,42.007703,-87.673168,New Field Primary School,0
610287,32081,ASHBURN,8300 S ST LOUIS AVE,ES,41.742351,-87.70961,Ashburn Comm. Elem. School,0
610290,26321,MAYS,6656 S NORMAL BLVD,ES,41.772728,-87.637277,Mays Academy,0
610291,26331,LEE,6448 S TRIPP AVE,ES,41.775305,-87.728884,Lee Elem School,0
610293,26351,MELODY,3937 W WILCOX ST,ES,41.878799,-87.724661,Melody Elem School,0
610295,31251,HIGGINS,11710 S MORGAN ST,ES,41.681031,-87.646994,Higgins Community Academy,0
610298,29361,LENART,8101 S LASALLE ST,ES,41.747186,-87.62804,Lenart Gifted Ctr,0
610299,26371,KING ES,644 W 71ST ST,ES,41.765335,-87.641335,"King, Dr. Martin Luther King Jr. Acad. of Soc. Justice",0
610300,26381,WESTCOTT,409 W 80TH ST,ES,41.748868,-87.634751,Westcott Elem School,0
610304,55011,PHOENIX MILITARY HS,145 S CAMPBELL AVE,HS,41.879118,-87.68696,Phoenix Mil. Acad.,0
610305,26391,LELAND,512 S LAVERGNE AVE,ES,41.873587,-87.749276,Leland Elem School,0
610308,30121,RUDOLPH,1628 W WASHINGTON BLVD,ES,41.883907,-87.668091,Rudolph Learning Center,0
610312,26421,MCDOWELL,1419 E 89TH ST,ES,41.733132,-87.58959,McDowell Elem School,0
610313,31261,DE DIEGO,1313 N CLAREMONT AVE,ES,41.905294,-87.685756,Diego Comm Academy,0
610315,26431,WHITE,1136 W 122ND ST,ES,41.672309,-87.650539,White Academy,0
610316,26441,EARHART,1710 E 93RD ST,ES,41.726107,-87.582182,Earhart Elem School,0
610317,26451,BRIGHTON PARK,3825 S WASHTENAW AVE,ES,41.8239,-87.692077,Brighton Park Elem,1
610319,26461,EVERGREEN,3537 S PAULINA ST,ES,41.829356,-87.667817,Evergreen Academy,0
610323,46491,BOWEN HS,2710 E 89TH ST,HS,41.734627,-87.55755,Bowen High School,0
610325,41091,AVONDALE-LOGANDALE,3212 W GEORGE ST,ES,41.93397,-87.708041,Avondale-Logandale Elementary School,0
610329,31281,OROZCO,1940 W 18TH ST,ES,41.857755,-87.67521,Orozco Comm Academy,0
610334,46471,RABY HS,3545 W FULTON BLVD,HS,41.88621,-87.715423,Raby School (Flower),0
610339,26521,STAGG,7424 S MORGAN ST,ES,41.758925,-87.649217,Stagg Elem School,0
610340,46481,CHICAGO ACADEMY HS,3400 N AUSTIN AVE,HS,41.943054,-87.776847,Chicago Academy H.S.,0
610342,29371,SABIN,2216 W HIRSCH ST,ES,41.906816,-87.68305,Sabin Magnet School,0
610345,26541,WOODSON,4414 S EVANS AVE,ES,41.814499,-87.608419,Woodson Elem Sch.,0
610347,31301,CLAREMONT,2300 W 64TH ST,ES,41.777511,-87.681061,Claremont Academy,0
610350,29381,BLACK,9101 S EUCLID AVE,ES,41.729692,-87.576643,Black Magnet,0
610352,26831,DURKIN PARK,8445 S KOLIN AVE,ES,41.738844,-87.729955,Durkin Park Elem. School,0
610353,26821,CALMECA,3456 W 38TH ST,ES,41.824377,-87.711654,Calmeca Academy of Fine Arts,0
610354,26841,NORTH RIVER,3729 W LELAND AVE,ES,41.966411,-87.721226,North River Elem. School,0
610355,30141,COURTENAY,4420 N BEACON ST,ES,41.962308,-87.663853,Courtenay Elem School,0
610357,46461,SPRY HS,2400 S MARSHALL BLVD,HS,41.847762,-87.698946,Spry Comm Links H.S.,0
610362,26591,EVERS,9811 S LOWE AVE,ES,41.715665,-87.639305,Evers Elem School,0
610363,29401,DISNEY,4140 N MARINE DR,ES,41.956816,-87.646083,Disney Magnet School,0
610364,26601,DUBOIS,330 E 133RD ST,ES,41.653733,-87.61432,DuBois Elem School,0
610366,26621,WACKER,9746 S MORGAN ST,ES,41.716193,-87.648044,Wacker Elem School,0
610367,26631,DEPRIEST,139 S PARKSIDE AVE,ES,41.877979,-87.766298,DePriest Elem School,1
610368,22451,HUGHES L,240 W 104TH ST,ES,41.705342,-87.629869,"Hughes, L. Magnet School",0
610369,26651,JACKSON M,917 W 88TH ST,ES,41.734125,-87.646767,"Jackson, Mahalia Elem School",0
610380,55161,WILLIAMS HS,4934 S WABASH AVE,HS,41.806118,-87.62503,Williams Prep. Sch. of Med,0
610381,55191,BRONZEVILLE HS,4934 S WABASH AVE,HS,41.805204,-87.625004,Bronzeville Scholastic,0
610383,55171,SOCIAL JUSTICE HS,3120 S KOSTNER AVE,HS,41.833507,-87.735299,Social Justice High School,0
610384,55151,INFINITY HS,3120 S KOSTNER AVE,HS,41.836169,-87.735278,Infinity Math & Science School,0
610385,55181,MULTICULTURAL ARTS HS,3120 S KOSTNER AVE,HS,41.835282,-87.735283,Multicultural Arts School,0
610386,67021,PEACE AND EDUCATION HS,4946 S PAULINA ST,HS,41.803515,-87.667378,Peace & Ed. Coal. Altr. H.S.,0
610389,28151,ORR HS,730 N PULASKI RD,HS,41.894547,-87.72666,Orr Academy High School,0
610499,49131,COLLINS HS,1313 S SACRAMENTO DR,HS,41.864149,-87.702042,Collins  Academy,0
610503,29411,FRAZIER PROSPECTIVE,4027 W GRENSHAW ST,ES,41.86698,-87.727244,Frazier International Magnet,0
610504,26891,THOMAS,3625 S HOYNE AVE,ES,41.827775,-87.677542,Thomas Early Chld Ctr,0
610513,45231,AIR FORCE HS,3630 S WELLS ST,HS,41.828145,-87.632757,Air Force Academy High School,0
610518,46621,AUSTIN CCA HS,231 N PINE AVE,HS,41.885993,-87.761916,Austin College and Career Academy H.S.,0
610520,29101,LASALLE II,1148 N HONORE ST,ES,41.902914,-87.673696,LaSalle II Magnet School,0
610521,29391,DAVIS M,6740 S PAULINA ST,ES,41.771221,-87.66653,"Davis, M. Magnet Academy",0
610523,28081,EDISON PARK,6220 N OLCOTT AVE,ES,41.994238,-87.813771,Edison Park Elem. School,0
610524,70241,ALCOTT HS,2957 N HOYNE AVE,HS,41.935795,-87.680562,Alcott College Prep H.S.,0
610530,22251,SOUTH SHORE ES,1415 E 70TH ST,ES,41.767755,-87.590396,South Shore Fine Arts Academy,0
610532,22441,HERNANDEZ,3510 W 55TH ST,ES,41.793479,-87.71137,Hernandez Middle School,0
610533,22581,PRIETO,2231 N CENTRAL AVE,ES,41.921318,-87.765781,Prieto Academy,0
610534,22591,SKINNER NORTH,640 W SCOTT ST,ES,41.905109,-87.644841,Skinner North School,0
610539,22691,CAMRAS,3000 N MANGO AVE,ES,41.934931,-87.770127,Camras Elementary School,0
610541,22341,LORCA,3231 N SPRINGFIELD AVE,ES,41.940026,-87.724783,LORCA,0
610542,22381,WEST RIDGE,6700 N WHIPPLE ST,ES,42.002959,-87.705917,West Ridge Elementary School,0
610543,46101,SOLORIO HS,5400 S ST LOUIS AVE,HS,41.795201,-87.711059,Solorio Academy High School,0
610544,22921,AZUELA,4707 W MARQUETTE RD,ES,41.771079,-87.73992,Azuela Elementary School,0
610547,46631,SOUTH SHORE INTL HS,1955 E 75TH ST,HS,41.758792,-87.576353,South Shore Int'l Col. Prep.,0
610548,22711,STEM,1522 W FILLMORE ST,ES,41.868576,-87.664969,STEM,0
610558,46611,GOODE HS,7651 S HOMAN AVE,HS,41.75375,-87.707345,"Goode, STEM Academy HS",0
610559,27091,SHIELDS MIDDLE,2611 W 48TH ST,ES,41.806491,-87.68978,Shields Middle School,0
610561,46641,CRANE MEDICAL HS,2245 W JACKSON BLVD,HS,41.876947,-87.683301,Crane Medical Prep H.S.,0
610563,46551,BACK OF THE YARDS HS,2111 W 47TH ST,HS,41.808413,-87.677541,Back of the Yards IB H.S.,0
609774,22041,ALCOTT ES,2625 N ORCHARD ST,ES,41.92985,-87.646413,Alcott Elem School,0
610184,25451,SPRY ES,2400 S MARSHALL BLVD,ES,41.847747,-87.700184,Spry Elem School,0
610101,24731,OGDEN ES,24 W WALTON ST,ES,41.899976,-87.629297,Ogden International School,0
610515,26921,DISNEY II ES,3815 N KEDVALE AVE,ES,41.950461,-87.730678,Disney II,0
400172,66255,ASPIRA - BUSINESS & FINANCE HS,2989 N. MILWAUKEE AVE,HS,41.935726,-87.718204,Aspira Business & Finance Charter HS,0
610586,22631,SADLOWSKI,3930 E 105TH ST,ES,41.704859,-87.527985,Sadlowski Elementary School,0
610587,46681,DYETT ARTS HS,555 E 51ST ST,HS,41.801204,-87.612239,Dyett H.S. for the Arts,1
610588,23381,RICHARDSON,6018 S KARLOV AVE,ES,41.783826,-87.725422,Richardson Middle School,0
610589,23521,SOR JUANA,4034 W 56TH ST,ES,41.791464,-87.72447,Sor Juana Classical,0
610590,26181,BRONZEVILLE CLASSICAL,8 W ROOT ST,ES,41.819249,-87.626621,Bronzeville Classical,0
610592,46691,ENGLEWOOD STEM HS,6835 S NORMAL BLVD,HS,41.77025,-87.636851,Englewood STEM H.S.,0
610595,30151,FISHER,1840 N. CLARK ST,ES,41.916008,-87.634637,Lincoln Park Early Learning Center,0
610599,26081,CATALPA,4434 N LARAMIE AVE,ES,41.961983,-87.757791,Northwest Early Childhood Center,0
610596,26931,VIRTUAL ACADEMY ES,1326 W 14TH ST,ES,41.863454,-87.659506,Virtual Academy,0
400105,66442,URBAN PREP - BRONZEVILLE HS,521 E 35TH ST,HS,41.831118,-87.613629,Urban Prep Bronzeville Campus,0
400086,66441,URBAN PREP - ENGLEWOOD HS,6201 S STEWART AVE,HS,41.781498,-87.634357,Urban Prep Englewood Campus,0
609790,22151,BARTON,7650 S WOLCOTT AVE,ES,41.754194,-87.670927,Barton Elem School,0
